{"type": "FeatureCollection", "features": [{"type": "Feature", "properties": {"name": "Sans titre - Rep\u00e8re", "styleUrl": "#m_ylw-pushpin"}, "geometry": {"type": "Point", "coordinates": [36.96637904431736, 33.0507444254585, 0.0]}}, {"type": "Feature", "properties": {"name": "Sans titre - Rep\u00e8re", "styleUrl": "#m_ylw-pushpin"}, "geometry": {"type": "Point", "coordinates": [36.96998865562709, 33.05264334353833, 0.0]}}, {"type": "Feature", "properties": {"name": "Sans titre - Rep\u00e8re", "styleUrl": "#m_ylw-pushpin"}, "geometry": {"type": "Point", "coordinates": [36.968901236535, 33.05537771363797, 0.0]}}, {"type": "Feature", "properties": {"name": "Sans titre - Rep\u00e8re", "styleUrl": "#m_ylw-pushpin"}, "geometry": {"type": "Point", "coordinates": [36.95606898594184, 33.06630770922376, 0.0]}}, {"type": "Feature", "properties": {"name": "Sans titre - Rep\u00e8re", "styleUrl": "#m_ylw-pushpin"}, "geometry": {"type": "Point", "coordinates": [36.95908713808979, 33.0508390082986, 0.0]}}, {"type": "Feature", "properties": {"name": "Sans titre - Rep\u00e8re", "styleUrl": "#m_ylw-pushpin"}, "geometry": {"type": "Point", "coordinates": [36.96311221347955, 33.05230487353457, 0.0]}}, {"type": "Feature", "properties": {"name": "Sans titre - Rep\u00e8re", "styleUrl": "#m_ylw-pushpin"}, "geometry": {"type": "Point", "coordinates": [36.95714681620758, 33.09804553540977, 0.0]}}, {"type": "Feature", "properties": {"name": "Sans titre - Rep\u00e8re", "styleUrl": "#m_ylw-pushpin"}, "geometry": {"type": "Point", "coordinates": [36.95386896192367, 33.10619751393106, 0.0]}}, {"type": "Feature", "properties": {"name": "Sans titre - Rep\u00e8re", "styleUrl": "#m_ylw-pushpin"}, "geometry": {"type": "Point", "coordinates": [36.93502397389332, 33.11438639108854, 0.0]}}, {"type": "Feature", "properties": {"name": "Sans titre - Rep\u00e8re", "styleUrl": "#m_ylw-pushpin"}, "geometry": {"type": "Point", "coordinates": [36.93825673013094, 33.12903280131292, 0.0]}}, {"type": "Feature", "properties": {"name": "Sans titre - Rep\u00e8re", "styleUrl": "#m_ylw-pushpin"}, "geometry": {"type": "Point", "coordinates": [36.87299386661807, 33.19050344396043, 0.0]}}, {"type": "Feature", "properties": {"name": "Sans titre - Rep\u00e8re", "styleUrl": "#m_ylw-pushpin"}, "geometry": {"type": "Point", "coordinates": [36.86652777453615, 33.19645579102413, 0.0]}}, {"type": "Feature", "properties": {"name": "Sans titre - Rep\u00e8re", "styleUrl": "#m_ylw-pushpin"}, "geometry": {"type": "Point", "coordinates": [36.84949269894718, 33.20655804392561, 0.0]}}, {"type": "Feature", "properties": {"name": "Sans titre - Rep\u00e8re", "styleUrl": "#m_ylw-pushpin"}, "geometry": {"type": "Point", "coordinates": [36.83984104520162, 33.22811874830365, 0.0]}}, {"type": "Feature", "properties": {"name": "Sans titre - Rep\u00e8re", "styleUrl": "#m_ylw-pushpin"}, "geometry": {"type": "Point", "coordinates": [36.82810188810419, 33.22213602784112, 0.0]}}, {"type": "Feature", "properties": {"name": "Sans titre - Rep\u00e8re", "styleUrl": "#m_ylw-pushpin"}, "geometry": {"type": "Point", "coordinates": [36.82164606130277, 33.22205103543331, 0.0]}}, {"type": "Feature", "properties": {"name": "Sans titre - Rep\u00e8re", "styleUrl": "#msn_info_circle3"}, "geometry": {"type": "Point", "coordinates": [36.82276773349524, 33.22146449792214, 0.0]}}, {"type": "Feature", "properties": {"name": "Sans titre - Rep\u00e8re", "styleUrl": "#msn_homegardenbusiness0"}, "geometry": {"type": "Point", "coordinates": [36.81701942077589, 33.22330715584327, 0.0]}}, {"type": "Feature", "properties": {"name": "Sans titre - Rep\u00e8re", "styleUrl": "#msn_homegardenbusiness0"}, "geometry": {"type": "Point", "coordinates": [36.81659056295496, 33.22464567583939, 0.0]}}, {"type": "Feature", "properties": {"name": "Sans titre - Rep\u00e8re", "styleUrl": "#msn_homegardenbusiness0"}, "geometry": {"type": "Point", "coordinates": [36.97789424275526, 33.05143950620715, 0.0]}}, {"type": "Feature", "properties": {"name": "Sans titre - Rep\u00e8re", "styleUrl": "#msn_homegardenbusiness0"}, "geometry": {"type": "Point", "coordinates": [37.02182222103976, 33.02590599269209, 0.0]}}, {"type": "Feature", "properties": {"name": "Sans titre - Rep\u00e8re", "styleUrl": "#msn_homegardenbusiness0"}, "geometry": {"type": "Point", "coordinates": [37.03938032098575, 33.02299600337282, 0.0]}}, {"type": "Feature", "properties": {"name": "Sans titre - Rep\u00e8re", "styleUrl": "#msn_homegardenbusiness0"}, "geometry": {"type": "Point", "coordinates": [37.05696852492328, 33.02828332649473, 0.0]}}, {"type": "Feature", "properties": {"name": "Sans titre - Rep\u00e8re", "styleUrl": "#msn_homegardenbusiness0"}, "geometry": {"type": "Point", "coordinates": [37.0893918638475, 33.0055589632771, 0.0]}}, {"type": "Feature", "properties": {"name": "Sans titre - Rep\u00e8re", "styleUrl": "#msn_homegardenbusiness0"}, "geometry": {"type": "Point", "coordinates": [37.03581652629489, 33.05929680954193, 0.0]}}, {"type": "Feature", "properties": {"name": "Sans titre - Rep\u00e8re", "styleUrl": "#msn_homegardenbusiness0"}, "geometry": {"type": "Point", "coordinates": [36.99894663708957, 33.06189807021174, 0.0]}}, {"type": "Feature", "properties": {"name": "Sans titre - Rep\u00e8re", "styleUrl": "#msn_homegardenbusiness0"}, "geometry": {"type": "Point", "coordinates": [37.10890708884536, 32.90705522503038, 0.0]}}, {"type": "Feature", "properties": {"name": "Sans titre - Rep\u00e8re", "styleUrl": "#msn_sunny"}, "geometry": {"type": "Point", "coordinates": [37.10982552155718, 32.90928613062499, 0.0]}}, {"type": "Feature", "properties": {"name": "Sans titre - Rep\u00e8re", "styleUrl": "#msn_homegardenbusiness3"}, "geometry": {"type": "Point", "coordinates": [36.76211111885451, 33.23106666390355, 0.0]}}, {"type": "Feature", "properties": {"name": "Sans titre - Rep\u00e8re", "styleUrl": "#msn_homegardenbusiness3"}, "geometry": {"type": "Point", "coordinates": [36.7714389009689, 33.23607288834545, 0.0]}}, {"type": "Feature", "properties": {"name": "Sans titre - Rep\u00e8re", "styleUrl": "#msn_homegardenbusiness3"}, "geometry": {"type": "Point", "coordinates": [36.78607850380504, 33.22257450614748, 0.0]}}, {"type": "Feature", "properties": {"name": "Sans titre - Rep\u00e8re", "styleUrl": "#msn_homegardenbusiness3"}, "geometry": {"type": "Point", "coordinates": [36.74799378194826, 33.26488890484073, 0.0]}}, {"type": "Feature", "properties": {"name": "Sans titre - Rep\u00e8re", "styleUrl": "#msn_info_circle"}, "geometry": {"type": "Point", "coordinates": [36.789434682598, 33.28488601006002, 0.0]}}, {"type": "Feature", "properties": {"name": "Sans titre - Rep\u00e8re", "styleUrl": "#msn_info_circle"}, "geometry": {"type": "Point", "coordinates": [36.77584995413783, 33.29263793099425, 0.0]}}, {"type": "Feature", "properties": {"name": "Sans titre - Rep\u00e8re", "styleUrl": "#msn_homegardenbusiness2"}, "geometry": {"type": "Point", "coordinates": [36.67466012638334, 33.28559750813323, 0.0]}}, {"type": "Feature", "properties": {"name": "Sans titre - Rep\u00e8re", "styleUrl": "#msn_homegardenbusiness2"}, "geometry": {"type": "Point", "coordinates": [36.81493602021994, 33.28907888304159, 0.0]}}, {"type": "Feature", "properties": {"name": "Sans titre - Rep\u00e8re", "styleUrl": "#msn_homegardenbusiness2"}, "geometry": {"type": "Point", "coordinates": [36.81328796814379, 33.33068403674747, 0.0]}}, {"type": "Feature", "properties": {"name": "Sans titre - Rep\u00e8re", "styleUrl": "#msn_homegardenbusiness2"}, "geometry": {"type": "Point", "coordinates": [36.81902852560792, 33.34589785249929, 0.0]}}, {"type": "Feature", "properties": {"name": "Sans titre - Rep\u00e8re", "styleUrl": "#msn_homegardenbusiness2"}, "geometry": {"type": "Point", "coordinates": [36.78941186513208, 33.35836016784051, 0.0]}}, {"type": "Feature", "properties": {"name": "Sans titre - Rep\u00e8re", "styleUrl": "#msn_homegardenbusiness"}, "geometry": {"type": "Point", "coordinates": [36.83477711562935, 33.35898668039471, 0.0]}}, {"type": "Feature", "properties": {"name": "Sans titre - Rep\u00e8re", "styleUrl": "#msn_homegardenbusiness4"}, "geometry": {"type": "Point", "coordinates": [36.4537319444404, 32.96080491806625, 0.0]}}, {"type": "Feature", "properties": {"name": "Sans titre - Rep\u00e8re", "styleUrl": "#msn_homegardenbusiness4"}, "geometry": {"type": "Point", "coordinates": [36.38242332326841, 32.91201761877031, 0.0]}}, {"type": "Feature", "properties": {"name": "Sans titre - Rep\u00e8re", "styleUrl": "#msn_homegardenbusiness4"}, "geometry": {"type": "Point", "coordinates": [36.82252172124277, 33.28721283179927, 0.0]}}, {"type": "Feature", "properties": {"name": "Sans titre - Rep\u00e8re", "styleUrl": "#msn_homegardenbusiness1"}, "geometry": {"type": "Point", "coordinates": [36.84226246964793, 33.10873337274691, 0.0]}}, {"type": "Feature", "properties": {"name": "Sans titre - Rep\u00e8re", "styleUrl": "#msn_homegardenbusiness1"}, "geometry": {"type": "Point", "coordinates": [36.57343756660828, 32.9800877536909, 0.0]}}, {"type": "Feature", "properties": {"name": "Sans titre - Rep\u00e8re", "styleUrl": "#msn_homegardenbusiness1"}, "geometry": {"type": "Point", "coordinates": [36.57455732635426, 32.98449365527563, 0.0]}}, {"type": "Feature", "properties": {"name": "Sans titre - Rep\u00e8re", "styleUrl": "#msn_homegardenbusiness1"}, "geometry": {"type": "Point", "coordinates": [36.56831502559685, 32.98651239108624, 0.0]}}, {"type": "Feature", "properties": {"name": "Sans titre - Rep\u00e8re", "styleUrl": "#msn_homegardenbusiness1"}, "geometry": {"type": "Point", "coordinates": [36.57310106188601, 33.01127026510895, 0.0]}}, {"type": "Feature", "properties": {"name": "Sans titre - Rep\u00e8re", "styleUrl": "#msn_homegardenbusiness1"}, "geometry": {"type": "Point", "coordinates": [36.57156960727298, 33.01766172433422, 0.0]}}, {"type": "Feature", "properties": {"name": "Sans titre - Rep\u00e8re", "styleUrl": "#msn_homegardenbusiness1"}, "geometry": {"type": "Point", "coordinates": [36.57126758106921, 33.02115231557731, 0.0]}}, {"type": "Feature", "properties": {"name": "Sans titre - Rep\u00e8re", "styleUrl": "#msn_homegardenbusiness1"}, "geometry": {"type": "Point", "coordinates": [36.56482892328716, 33.02580020592135, 0.0]}}, {"type": "Feature", "properties": {"name": "Sans titre - Rep\u00e8re", "styleUrl": "#msn_homegardenbusiness1"}, "geometry": {"type": "Point", "coordinates": [36.5629290822607, 33.02844487468526, 0.0]}}, {"type": "Feature", "properties": {"name": "Sans titre - Rep\u00e8re", "styleUrl": "#msn_homegardenbusiness1"}, "geometry": {"type": "Point", "coordinates": [36.50773638894568, 33.0917311479943, 0.0]}}, {"type": "Feature", "properties": {"name": "Sans titre - Rep\u00e8re", "styleUrl": "#msn_homegardenbusiness1"}, "geometry": {"type": "Point", "coordinates": [36.46767225936413, 33.08158904876987, 0.0]}}, {"type": "Feature", "properties": {"name": "Sans titre - Rep\u00e8re", "styleUrl": "#msn_homegardenbusiness1"}, "geometry": {"type": "Point", "coordinates": [36.48530909338142, 33.08227648510834, 0.0]}}, {"type": "Feature", "properties": {"name": "Sans titre - Rep\u00e8re", "styleUrl": "#msn_homegardenbusiness1"}, "geometry": {"type": "Point", "coordinates": [36.46693462029405, 33.07700057302343, 0.0]}}, {"type": "Feature", "properties": {"name": "Sans titre - Rep\u00e8re", "styleUrl": "#msn_homegardenbusiness1"}, "geometry": {"type": "Point", "coordinates": [36.43365083678446, 33.02482655418461, 0.0]}}, {"type": "Feature", "properties": {"name": "Sans titre - Rep\u00e8re", "styleUrl": "#msn_homegardenbusiness1"}, "geometry": {"type": "Point", "coordinates": [36.43126828627166, 33.01071306014197, 0.0]}}, {"type": "Feature", "properties": {"name": "Sans titre - Rep\u00e8re", "styleUrl": "#msn_homegardenbusiness1"}, "geometry": {"type": "Point", "coordinates": [36.43669243795307, 33.00764018744027, 0.0]}}, {"type": "Feature", "properties": {"name": "Sans titre - Rep\u00e8re", "styleUrl": "#msn_homegardenbusiness1"}, "geometry": {"type": "Point", "coordinates": [36.42371215253235, 33.01099712195635, 0.0]}}, {"type": "Feature", "properties": {"name": "Sans titre - Rep\u00e8re", "styleUrl": "#msn_homegardenbusiness1"}, "geometry": {"type": "Point", "coordinates": [41.29316460285406, 36.34465186833496, 0.0]}}], "name": "/tmp/outputs/"}