{
"type": "FeatureCollection",
"name": "AllMustatilsFINALFINAL",
"features": [
{ "type": "Feature", "properties": { "id": 3, "id_2": null, "Name": null, "description": null, "timestamp": null, "begin": null, "end": null, "altitudeMode": null, "tessellate": null, "extrude": null, "visibility": null, "drawOrder": null, "icon": null }, "geometry": { "type": "MultiPoint", "coordinates": [ [ 43.617162546270769, 23.523121930935666 ] ] } },
{ "type": "Feature", "properties": { "id": 4, "id_2": null, "Name": null, "description": null, "timestamp": null, "begin": null, "end": null, "altitudeMode": null, "tessellate": null, "extrude": null, "visibility": null, "drawOrder": null, "icon": null }, "geometry": { "type": "MultiPoint", "coordinates": [ [ 43.620906617603772, 23.518188166043419 ] ] } },
{ "type": "Feature", "properties": { "id": 7, "id_2": null, "Name": null, "description": null, "timestamp": null, "begin": null, "end": null, "altitudeMode": null, "tessellate": null, "extrude": null, "visibility": null, "drawOrder": null, "icon": null }, "geometry": { "type": "MultiPoint", "coordinates": [ [ 45.180890306023244, 22.427805337301947 ] ] } },
{ "type": "Feature", "properties": { "id": 6, "id_2": null, "Name": null, "description": null, "timestamp": null, "begin": null, "end": null, "altitudeMode": null, "tessellate": null, "extrude": null, "visibility": null, "drawOrder": null, "icon": null }, "geometry": { "type": "MultiPoint", "coordinates": [ [ 45.178910858474239, 22.42657842385789 ] ] } },
{ "type": "Feature", "properties": { "id": 8, "id_2": null, "Name": null, "description": null, "timestamp": null, "begin": null, "end": null, "altitudeMode": null, "tessellate": null, "extrude": null, "visibility": null, "drawOrder": null, "icon": null }, "geometry": { "type": "MultiPoint", "coordinates": [ [ 45.179570674323912, 22.425922410775701 ] ] } },
{ "type": "Feature", "properties": { "id": null, "id_2": null, "Name": "Punkt 1", "description": null, "timestamp": null, "begin": null, "end": null, "altitudeMode": null, "tessellate": -1, "extrude": 0, "visibility": -1, "drawOrder": null, "icon": null }, "geometry": { "type": "MultiPoint", "coordinates": [ [ 44.139194444444442, 23.025222222222222 ] ] } },
{ "type": "Feature", "properties": { "id": null, "id_2": null, "Name": "Punkt 2", "description": null, "timestamp": null, "begin": null, "end": null, "altitudeMode": null, "tessellate": -1, "extrude": 0, "visibility": -1, "drawOrder": null, "icon": null }, "geometry": { "type": "MultiPoint", "coordinates": [ [ 43.653129, 23.7033 ] ] } },
{ "type": "Feature", "properties": { "id": null, "id_2": null, "Name": "Punkt 3", "description": null, "timestamp": null, "begin": null, "end": null, "altitudeMode": null, "tessellate": -1, "extrude": 0, "visibility": -1, "drawOrder": null, "icon": null }, "geometry": { "type": "MultiPoint", "coordinates": [ [ 43.477838, 23.636049 ] ] } },
{ "type": "Feature", "properties": { "id": null, "id_2": null, "Name": "Punkt 4", "description": null, "timestamp": null, "begin": null, "end": null, "altitudeMode": null, "tessellate": -1, "extrude": 0, "visibility": -1, "drawOrder": null, "icon": null }, "geometry": { "type": "MultiPoint", "coordinates": [ [ 43.480495, 23.634874 ] ] } },
{ "type": "Feature", "properties": { "id": null, "id_2": null, "Name": "Punkt 5", "description": null, "timestamp": null, "begin": null, "end": null, "altitudeMode": null, "tessellate": -1, "extrude": 0, "visibility": -1, "drawOrder": null, "icon": null }, "geometry": { "type": "MultiPoint", "coordinates": [ [ 43.497574, 23.62396 ] ] } },
{ "type": "Feature", "properties": { "id": null, "id_2": null, "Name": "Punkt 6", "description": null, "timestamp": null, "begin": null, "end": null, "altitudeMode": null, "tessellate": -1, "extrude": 0, "visibility": -1, "drawOrder": null, "icon": null }, "geometry": { "type": "MultiPoint", "coordinates": [ [ 43.53726, 23.595587 ] ] } },
{ "type": "Feature", "properties": { "id": null, "id_2": null, "Name": "Punkt 7", "description": null, "timestamp": null, "begin": null, "end": null, "altitudeMode": null, "tessellate": -1, "extrude": 0, "visibility": -1, "drawOrder": null, "icon": null }, "geometry": { "type": "MultiPoint", "coordinates": [ [ 43.546403, 23.58699 ] ] } },
{ "type": "Feature", "properties": { "id": null, "id_2": null, "Name": "Punkt 8", "description": null, "timestamp": null, "begin": null, "end": null, "altitudeMode": null, "tessellate": -1, "extrude": 0, "visibility": -1, "drawOrder": null, "icon": null }, "geometry": { "type": "MultiPoint", "coordinates": [ [ 43.549883, 23.581618 ] ] } },
{ "type": "Feature", "properties": { "id": null, "id_2": null, "Name": "Punkt 9", "description": null, "timestamp": null, "begin": null, "end": null, "altitudeMode": null, "tessellate": -1, "extrude": 0, "visibility": -1, "drawOrder": null, "icon": null }, "geometry": { "type": "MultiPoint", "coordinates": [ [ 43.548467, 23.582472 ] ] } },
{ "type": "Feature", "properties": { "id": null, "id_2": null, "Name": "Punkt 10", "description": null, "timestamp": null, "begin": null, "end": null, "altitudeMode": null, "tessellate": -1, "extrude": 0, "visibility": -1, "drawOrder": null, "icon": null }, "geometry": { "type": "MultiPoint", "coordinates": [ [ 43.546323, 23.581516 ] ] } },
{ "type": "Feature", "properties": { "id": null, "id_2": null, "Name": "Punkt 11", "description": null, "timestamp": null, "begin": null, "end": null, "altitudeMode": null, "tessellate": -1, "extrude": 0, "visibility": -1, "drawOrder": null, "icon": null }, "geometry": { "type": "MultiPoint", "coordinates": [ [ 43.88377777777778, 23.237444444444446 ] ] } },
{ "type": "Feature", "properties": { "id": null, "id_2": null, "Name": "Punkt 12", "description": null, "timestamp": null, "begin": null, "end": null, "altitudeMode": null, "tessellate": -1, "extrude": 0, "visibility": -1, "drawOrder": null, "icon": null }, "geometry": { "type": "MultiPoint", "coordinates": [ [ 43.867055555555559, 23.176194444444445 ] ] } },
{ "type": "Feature", "properties": { "id": null, "id_2": null, "Name": "Punkt 13", "description": null, "timestamp": null, "begin": null, "end": null, "altitudeMode": null, "tessellate": -1, "extrude": 0, "visibility": -1, "drawOrder": null, "icon": null }, "geometry": { "type": "MultiPoint", "coordinates": [ [ 43.917277777777777, 23.20175 ] ] } },
{ "type": "Feature", "properties": { "id": null, "id_2": null, "Name": "Punkt 14", "description": null, "timestamp": null, "begin": null, "end": null, "altitudeMode": null, "tessellate": -1, "extrude": 0, "visibility": -1, "drawOrder": null, "icon": null }, "geometry": { "type": "MultiPoint", "coordinates": [ [ 43.880916666666664, 23.171722222222222 ] ] } },
{ "type": "Feature", "properties": { "id": null, "id_2": null, "Name": "Punkt 15", "description": null, "timestamp": null, "begin": null, "end": null, "altitudeMode": null, "tessellate": -1, "extrude": 0, "visibility": -1, "drawOrder": null, "icon": null }, "geometry": { "type": "MultiPoint", "coordinates": [ [ 43.867416666666664, 23.21975 ] ] } },
{ "type": "Feature", "properties": { "id": null, "id_2": null, "Name": "Punkt 16", "description": null, "timestamp": null, "begin": null, "end": null, "altitudeMode": null, "tessellate": -1, "extrude": 0, "visibility": -1, "drawOrder": null, "icon": null }, "geometry": { "type": "MultiPoint", "coordinates": [ [ 43.854416666666665, 23.25086111111111 ] ] } },
{ "type": "Feature", "properties": { "id": null, "id_2": null, "Name": "Punkt 17", "description": null, "timestamp": null, "begin": null, "end": null, "altitudeMode": null, "tessellate": -1, "extrude": 0, "visibility": -1, "drawOrder": null, "icon": null }, "geometry": { "type": "MultiPoint", "coordinates": [ [ 43.854972222222223, 23.25 ] ] } },
{ "type": "Feature", "properties": { "id": null, "id_2": null, "Name": "Punkt 18", "description": null, "timestamp": null, "begin": null, "end": null, "altitudeMode": null, "tessellate": -1, "extrude": 0, "visibility": -1, "drawOrder": null, "icon": null }, "geometry": { "type": "MultiPoint", "coordinates": [ [ 43.865722222222225, 23.166444444444444 ] ] } },
{ "type": "Feature", "properties": { "id": null, "id_2": null, "Name": "Punkt 19", "description": null, "timestamp": null, "begin": null, "end": null, "altitudeMode": null, "tessellate": -1, "extrude": 0, "visibility": -1, "drawOrder": null, "icon": null }, "geometry": { "type": "MultiPoint", "coordinates": [ [ 43.846611111111116, 23.187111111111111 ] ] } },
{ "type": "Feature", "properties": { "id": null, "id_2": null, "Name": "Punkt 20", "description": null, "timestamp": null, "begin": null, "end": null, "altitudeMode": null, "tessellate": -1, "extrude": 0, "visibility": -1, "drawOrder": null, "icon": null }, "geometry": { "type": "MultiPoint", "coordinates": [ [ 43.881166666666665, 23.241 ] ] } },
{ "type": "Feature", "properties": { "id": null, "id_2": null, "Name": "Punkt 21", "description": null, "timestamp": null, "begin": null, "end": null, "altitudeMode": null, "tessellate": -1, "extrude": 0, "visibility": -1, "drawOrder": null, "icon": null }, "geometry": { "type": "MultiPoint", "coordinates": [ [ 43.855722222222226, 23.247972222222224 ] ] } },
{ "type": "Feature", "properties": { "id": null, "id_2": null, "Name": "Punkt 22", "description": null, "timestamp": null, "begin": null, "end": null, "altitudeMode": null, "tessellate": -1, "extrude": 0, "visibility": -1, "drawOrder": null, "icon": null }, "geometry": { "type": "MultiPoint", "coordinates": [ [ 43.864222222222224, 23.228416666666664 ] ] } },
{ "type": "Feature", "properties": { "id": null, "id_2": null, "Name": "Punkt 23", "description": null, "timestamp": null, "begin": null, "end": null, "altitudeMode": null, "tessellate": -1, "extrude": 0, "visibility": -1, "drawOrder": null, "icon": null }, "geometry": { "type": "MultiPoint", "coordinates": [ [ 43.868722222222225, 23.215805555555555 ] ] } },
{ "type": "Feature", "properties": { "id": null, "id_2": null, "Name": "Punkt 24", "description": null, "timestamp": null, "begin": null, "end": null, "altitudeMode": null, "tessellate": -1, "extrude": 0, "visibility": -1, "drawOrder": null, "icon": null }, "geometry": { "type": "MultiPoint", "coordinates": [ [ 43.86975, 23.201694444444446 ] ] } },
{ "type": "Feature", "properties": { "id": null, "id_2": null, "Name": "Punkt 25", "description": null, "timestamp": null, "begin": null, "end": null, "altitudeMode": null, "tessellate": -1, "extrude": 0, "visibility": -1, "drawOrder": null, "icon": null }, "geometry": { "type": "MultiPoint", "coordinates": [ [ 44.514444444444443, 22.59472222222222 ] ] } },
{ "type": "Feature", "properties": { "id": null, "id_2": null, "Name": "Punkt 26", "description": null, "timestamp": null, "begin": null, "end": null, "altitudeMode": null, "tessellate": -1, "extrude": 0, "visibility": -1, "drawOrder": null, "icon": null }, "geometry": { "type": "MultiPoint", "coordinates": [ [ 44.506722222222223, 22.637333333333334 ] ] } },
{ "type": "Feature", "properties": { "id": null, "id_2": null, "Name": "Punkt 27", "description": null, "timestamp": null, "begin": null, "end": null, "altitudeMode": null, "tessellate": -1, "extrude": 0, "visibility": -1, "drawOrder": null, "icon": null }, "geometry": { "type": "MultiPoint", "coordinates": [ [ 44.95225, 22.566194444444445 ] ] } },
{ "type": "Feature", "properties": { "id": null, "id_2": null, "Name": "Punkt 28", "description": null, "timestamp": null, "begin": null, "end": null, "altitudeMode": null, "tessellate": -1, "extrude": 0, "visibility": -1, "drawOrder": null, "icon": null }, "geometry": { "type": "MultiPoint", "coordinates": [ [ 45.05675, 22.300694444444446 ] ] } },
{ "type": "Feature", "properties": { "id": null, "id_2": null, "Name": "Punkt 29", "description": null, "timestamp": null, "begin": null, "end": null, "altitudeMode": null, "tessellate": -1, "extrude": 0, "visibility": -1, "drawOrder": null, "icon": null }, "geometry": { "type": "MultiPoint", "coordinates": [ [ 44.7815, 22.15947222222222 ] ] } },
{ "type": "Feature", "properties": { "id": null, "id_2": null, "Name": "Punkt 30", "description": null, "timestamp": null, "begin": null, "end": null, "altitudeMode": null, "tessellate": -1, "extrude": 0, "visibility": -1, "drawOrder": null, "icon": null }, "geometry": { "type": "MultiPoint", "coordinates": [ [ 45.068194444444451, 22.295416666666668 ] ] } },
{ "type": "Feature", "properties": { "id": null, "id_2": null, "Name": "Punkt 31", "description": null, "timestamp": null, "begin": null, "end": null, "altitudeMode": null, "tessellate": -1, "extrude": 0, "visibility": -1, "drawOrder": null, "icon": null }, "geometry": { "type": "MultiPoint", "coordinates": [ [ 45.047694444444446, 22.296194444444446 ] ] } },
{ "type": "Feature", "properties": { "id": null, "id_2": null, "Name": "Punkt 32", "description": null, "timestamp": null, "begin": null, "end": null, "altitudeMode": null, "tessellate": -1, "extrude": 0, "visibility": -1, "drawOrder": null, "icon": null }, "geometry": { "type": "MultiPoint", "coordinates": [ [ 44.966638888888895, 22.519333333333332 ] ] } },
{ "type": "Feature", "properties": { "id": null, "id_2": null, "Name": "Punkt 33", "description": null, "timestamp": null, "begin": null, "end": null, "altitudeMode": null, "tessellate": -1, "extrude": 0, "visibility": -1, "drawOrder": null, "icon": null }, "geometry": { "type": "MultiPoint", "coordinates": [ [ 44.947361111111107, 22.604388888888892 ] ] } },
{ "type": "Feature", "properties": { "id": null, "id_2": null, "Name": "Punkt 34", "description": null, "timestamp": null, "begin": null, "end": null, "altitudeMode": null, "tessellate": -1, "extrude": 0, "visibility": -1, "drawOrder": null, "icon": null }, "geometry": { "type": "MultiPoint", "coordinates": [ [ 44.393027777777775, 22.720777777777776 ] ] } },
{ "type": "Feature", "properties": { "id": null, "id_2": null, "Name": "Punkt 35", "description": null, "timestamp": null, "begin": null, "end": null, "altitudeMode": null, "tessellate": -1, "extrude": 0, "visibility": -1, "drawOrder": null, "icon": null }, "geometry": { "type": "MultiPoint", "coordinates": [ [ 44.42283333333333, 22.677777777777781 ] ] } },
{ "type": "Feature", "properties": { "id": null, "id_2": null, "Name": "Punkt 36", "description": null, "timestamp": null, "begin": null, "end": null, "altitudeMode": null, "tessellate": -1, "extrude": 0, "visibility": -1, "drawOrder": null, "icon": null }, "geometry": { "type": "MultiPoint", "coordinates": [ [ 44.491361111111111, 22.66011111111111 ] ] } },
{ "type": "Feature", "properties": { "id": null, "id_2": null, "Name": "Punkt 37", "description": null, "timestamp": null, "begin": null, "end": null, "altitudeMode": null, "tessellate": -1, "extrude": 0, "visibility": -1, "drawOrder": null, "icon": null }, "geometry": { "type": "MultiPoint", "coordinates": [ [ 44.511388888888888, 22.63347222222222 ] ] } },
{ "type": "Feature", "properties": { "id": null, "id_2": null, "Name": "Punkt 38", "description": null, "timestamp": null, "begin": null, "end": null, "altitudeMode": null, "tessellate": -1, "extrude": 0, "visibility": -1, "drawOrder": null, "icon": null }, "geometry": { "type": "MultiPoint", "coordinates": [ [ 44.507194444444444, 22.511833333333332 ] ] } },
{ "type": "Feature", "properties": { "id": null, "id_2": null, "Name": "Punkt 39", "description": null, "timestamp": null, "begin": null, "end": null, "altitudeMode": null, "tessellate": -1, "extrude": 0, "visibility": -1, "drawOrder": null, "icon": null }, "geometry": { "type": "MultiPoint", "coordinates": [ [ 44.519611111111111, 22.513 ] ] } },
{ "type": "Feature", "properties": { "id": null, "id_2": null, "Name": "Punkt 40", "description": null, "timestamp": null, "begin": null, "end": null, "altitudeMode": null, "tessellate": -1, "extrude": 0, "visibility": -1, "drawOrder": null, "icon": null }, "geometry": { "type": "MultiPoint", "coordinates": [ [ 44.439611111111105, 22.3995 ] ] } },
{ "type": "Feature", "properties": { "id": null, "id_2": null, "Name": "Punkt 41", "description": null, "timestamp": null, "begin": null, "end": null, "altitudeMode": null, "tessellate": -1, "extrude": 0, "visibility": -1, "drawOrder": null, "icon": null }, "geometry": { "type": "MultiPoint", "coordinates": [ [ 44.4675, 22.544583333333335 ] ] } },
{ "type": "Feature", "properties": { "id": null, "id_2": null, "Name": "Punkt 42", "description": null, "timestamp": null, "begin": null, "end": null, "altitudeMode": null, "tessellate": -1, "extrude": 0, "visibility": -1, "drawOrder": null, "icon": null }, "geometry": { "type": "MultiPoint", "coordinates": [ [ 44.102916666666665, 22.925666666666668 ] ] } },
{ "type": "Feature", "properties": { "id": null, "id_2": null, "Name": "Punkt 43", "description": null, "timestamp": null, "begin": null, "end": null, "altitudeMode": null, "tessellate": -1, "extrude": 0, "visibility": -1, "drawOrder": null, "icon": null }, "geometry": { "type": "MultiPoint", "coordinates": [ [ 44.0005, 23.21758333333333 ] ] } },
{ "type": "Feature", "properties": { "id": null, "id_2": null, "Name": "Punkt 44", "description": null, "timestamp": null, "begin": null, "end": null, "altitudeMode": null, "tessellate": -1, "extrude": 0, "visibility": -1, "drawOrder": null, "icon": null }, "geometry": { "type": "MultiPoint", "coordinates": [ [ 43.892555555555553, 23.143388888888889 ] ] } },
{ "type": "Feature", "properties": { "id": null, "id_2": null, "Name": "Punkt 45", "description": null, "timestamp": null, "begin": null, "end": null, "altitudeMode": null, "tessellate": -1, "extrude": 0, "visibility": -1, "drawOrder": null, "icon": null }, "geometry": { "type": "MultiPoint", "coordinates": [ [ 43.899527777777777, 23.09025 ] ] } },
{ "type": "Feature", "properties": { "id": null, "id_2": null, "Name": "Punkt 46", "description": null, "timestamp": null, "begin": null, "end": null, "altitudeMode": null, "tessellate": -1, "extrude": 0, "visibility": -1, "drawOrder": null, "icon": null }, "geometry": { "type": "MultiPoint", "coordinates": [ [ 44.134722222222223, 22.951277777777776 ] ] } },
{ "type": "Feature", "properties": { "id": null, "id_2": null, "Name": "Punkt 47", "description": null, "timestamp": null, "begin": null, "end": null, "altitudeMode": null, "tessellate": -1, "extrude": 0, "visibility": -1, "drawOrder": null, "icon": null }, "geometry": { "type": "MultiPoint", "coordinates": [ [ 44.155111111111111, 22.955694444444443 ] ] } },
{ "type": "Feature", "properties": { "id": null, "id_2": null, "Name": "Punkt 48", "description": null, "timestamp": null, "begin": null, "end": null, "altitudeMode": null, "tessellate": -1, "extrude": 0, "visibility": -1, "drawOrder": null, "icon": null }, "geometry": { "type": "MultiPoint", "coordinates": [ [ 43.936861111111106, 23.132555555555555 ] ] } },
{ "type": "Feature", "properties": { "id": null, "id_2": null, "Name": "Punkt 49", "description": null, "timestamp": null, "begin": null, "end": null, "altitudeMode": null, "tessellate": -1, "extrude": 0, "visibility": -1, "drawOrder": null, "icon": null }, "geometry": { "type": "MultiPoint", "coordinates": [ [ 43.922388888888889, 23.133444444444443 ] ] } },
{ "type": "Feature", "properties": { "id": null, "id_2": null, "Name": "Punkt 50", "description": null, "timestamp": null, "begin": null, "end": null, "altitudeMode": null, "tessellate": -1, "extrude": 0, "visibility": -1, "drawOrder": null, "icon": null }, "geometry": { "type": "MultiPoint", "coordinates": [ [ 43.940861111111104, 23.143083333333333 ] ] } },
{ "type": "Feature", "properties": { "id": null, "id_2": null, "Name": "Punkt 51", "description": null, "timestamp": null, "begin": null, "end": null, "altitudeMode": null, "tessellate": -1, "extrude": 0, "visibility": -1, "drawOrder": null, "icon": null }, "geometry": { "type": "MultiPoint", "coordinates": [ [ 44.148555555555554, 22.987472222222223 ] ] } },
{ "type": "Feature", "properties": { "id": null, "id_2": null, "Name": "Punkt 52", "description": null, "timestamp": null, "begin": null, "end": null, "altitudeMode": null, "tessellate": -1, "extrude": 0, "visibility": -1, "drawOrder": null, "icon": null }, "geometry": { "type": "MultiPoint", "coordinates": [ [ 44.02558333333333, 23.114833333333333 ] ] } },
{ "type": "Feature", "properties": { "id": null, "id_2": null, "Name": "Punkt 53", "description": null, "timestamp": null, "begin": null, "end": null, "altitudeMode": null, "tessellate": -1, "extrude": 0, "visibility": -1, "drawOrder": null, "icon": null }, "geometry": { "type": "MultiPoint", "coordinates": [ [ 44.03019444444444, 23.113222222222223 ] ] } },
{ "type": "Feature", "properties": { "id": null, "id_2": null, "Name": "Punkt 54", "description": null, "timestamp": null, "begin": null, "end": null, "altitudeMode": null, "tessellate": -1, "extrude": 0, "visibility": -1, "drawOrder": null, "icon": null }, "geometry": { "type": "MultiPoint", "coordinates": [ [ 44.048, 23.124472222222224 ] ] } },
{ "type": "Feature", "properties": { "id": null, "id_2": null, "Name": "Punkt 55", "description": null, "timestamp": null, "begin": null, "end": null, "altitudeMode": null, "tessellate": -1, "extrude": 0, "visibility": -1, "drawOrder": null, "icon": null }, "geometry": { "type": "MultiPoint", "coordinates": [ [ 43.981666666666669, 23.026 ] ] } },
{ "type": "Feature", "properties": { "id": null, "id_2": null, "Name": "Punkt 56", "description": null, "timestamp": null, "begin": null, "end": null, "altitudeMode": null, "tessellate": -1, "extrude": 0, "visibility": -1, "drawOrder": null, "icon": null }, "geometry": { "type": "MultiPoint", "coordinates": [ [ 43.996944444444445, 23.035111111111114 ] ] } },
{ "type": "Feature", "properties": { "id": null, "id_2": null, "Name": "Punkt 57", "description": null, "timestamp": null, "begin": null, "end": null, "altitudeMode": null, "tessellate": -1, "extrude": 0, "visibility": -1, "drawOrder": null, "icon": null }, "geometry": { "type": "MultiPoint", "coordinates": [ [ 43.93055555555555, 23.297388888888889 ] ] } },
{ "type": "Feature", "properties": { "id": null, "id_2": null, "Name": "Punkt 58", "description": null, "timestamp": null, "begin": null, "end": null, "altitudeMode": null, "tessellate": -1, "extrude": 0, "visibility": -1, "drawOrder": null, "icon": null }, "geometry": { "type": "MultiPoint", "coordinates": [ [ 43.928444444444445, 23.296944444444446 ] ] } },
{ "type": "Feature", "properties": { "id": null, "id_2": null, "Name": "Punkt 59", "description": null, "timestamp": null, "begin": null, "end": null, "altitudeMode": null, "tessellate": -1, "extrude": 0, "visibility": -1, "drawOrder": null, "icon": null }, "geometry": { "type": "MultiPoint", "coordinates": [ [ 43.928555555555555, 23.294583333333335 ] ] } },
{ "type": "Feature", "properties": { "id": null, "id_2": null, "Name": "Punkt 60", "description": null, "timestamp": null, "begin": null, "end": null, "altitudeMode": null, "tessellate": -1, "extrude": 0, "visibility": -1, "drawOrder": null, "icon": null }, "geometry": { "type": "MultiPoint", "coordinates": [ [ 44.742194444444443, 23.11075 ] ] } },
{ "type": "Feature", "properties": { "id": null, "id_2": null, "Name": "Punkt 61", "description": null, "timestamp": null, "begin": null, "end": null, "altitudeMode": null, "tessellate": -1, "extrude": 0, "visibility": -1, "drawOrder": null, "icon": null }, "geometry": { "type": "MultiPoint", "coordinates": [ [ 44.620694444444446, 23.11663888888889 ] ] } },
{ "type": "Feature", "properties": { "id": null, "id_2": null, "Name": "Punkt 62", "description": null, "timestamp": null, "begin": null, "end": null, "altitudeMode": null, "tessellate": -1, "extrude": 0, "visibility": -1, "drawOrder": null, "icon": null }, "geometry": { "type": "MultiPoint", "coordinates": [ [ 44.13111111111111, 22.97975 ] ] } },
{ "type": "Feature", "properties": { "id": null, "id_2": null, "Name": "Punkt 63", "description": null, "timestamp": null, "begin": null, "end": null, "altitudeMode": null, "tessellate": -1, "extrude": 0, "visibility": -1, "drawOrder": null, "icon": null }, "geometry": { "type": "MultiPoint", "coordinates": [ [ 44.144055555555553, 22.982388888888888 ] ] } },
{ "type": "Feature", "properties": { "id": null, "id_2": null, "Name": "Punkt 64", "description": null, "timestamp": null, "begin": null, "end": null, "altitudeMode": null, "tessellate": -1, "extrude": 0, "visibility": -1, "drawOrder": null, "icon": null }, "geometry": { "type": "MultiPoint", "coordinates": [ [ 44.026555555555554, 23.002166666666668 ] ] } },
{ "type": "Feature", "properties": { "id": null, "id_2": null, "Name": "Punkt 65", "description": null, "timestamp": null, "begin": null, "end": null, "altitudeMode": null, "tessellate": -1, "extrude": 0, "visibility": -1, "drawOrder": null, "icon": null }, "geometry": { "type": "MultiPoint", "coordinates": [ [ 44.115527777777778, 22.946166666666667 ] ] } },
{ "type": "Feature", "properties": { "id": null, "id_2": null, "Name": "Punkt 66", "description": null, "timestamp": null, "begin": null, "end": null, "altitudeMode": null, "tessellate": -1, "extrude": 0, "visibility": -1, "drawOrder": null, "icon": null }, "geometry": { "type": "MultiPoint", "coordinates": [ [ 44.179083333333331, 22.928361111111112 ] ] } },
{ "type": "Feature", "properties": { "id": null, "id_2": null, "Name": "Punkt 67", "description": null, "timestamp": null, "begin": null, "end": null, "altitudeMode": null, "tessellate": -1, "extrude": 0, "visibility": -1, "drawOrder": null, "icon": null }, "geometry": { "type": "MultiPoint", "coordinates": [ [ 44.169083333333333, 23.024555555555555 ] ] } },
{ "type": "Feature", "properties": { "id": null, "id_2": null, "Name": "Punkt 68", "description": null, "timestamp": null, "begin": null, "end": null, "altitudeMode": null, "tessellate": -1, "extrude": 0, "visibility": -1, "drawOrder": null, "icon": null }, "geometry": { "type": "MultiPoint", "coordinates": [ [ 44.168, 23.021944444444443 ] ] } },
{ "type": "Feature", "properties": { "id": null, "id_2": null, "Name": "Punkt 69", "description": null, "timestamp": null, "begin": null, "end": null, "altitudeMode": null, "tessellate": -1, "extrude": 0, "visibility": -1, "drawOrder": null, "icon": null }, "geometry": { "type": "MultiPoint", "coordinates": [ [ 44.082277777777783, 23.14725 ] ] } },
{ "type": "Feature", "properties": { "id": null, "id_2": null, "Name": "Punkt 70", "description": null, "timestamp": null, "begin": null, "end": null, "altitudeMode": null, "tessellate": -1, "extrude": 0, "visibility": -1, "drawOrder": null, "icon": null }, "geometry": { "type": "MultiPoint", "coordinates": [ [ 44.101888888888894, 23.14811111111111 ] ] } },
{ "type": "Feature", "properties": { "id": null, "id_2": null, "Name": "Punkt 71", "description": null, "timestamp": null, "begin": null, "end": null, "altitudeMode": null, "tessellate": -1, "extrude": 0, "visibility": -1, "drawOrder": null, "icon": null }, "geometry": { "type": "MultiPoint", "coordinates": [ [ 44.03, 22.9955 ] ] } },
{ "type": "Feature", "properties": { "id": null, "id_2": null, "Name": "Punkt 72", "description": null, "timestamp": null, "begin": null, "end": null, "altitudeMode": null, "tessellate": -1, "extrude": 0, "visibility": -1, "drawOrder": null, "icon": null }, "geometry": { "type": "MultiPoint", "coordinates": [ [ 44.050361111111108, 23.021222222222221 ] ] } },
{ "type": "Feature", "properties": { "id": null, "id_2": null, "Name": "Punkt 73", "description": null, "timestamp": null, "begin": null, "end": null, "altitudeMode": null, "tessellate": -1, "extrude": 0, "visibility": -1, "drawOrder": null, "icon": null }, "geometry": { "type": "MultiPoint", "coordinates": [ [ 44.025055555555554, 23.0735 ] ] } },
{ "type": "Feature", "properties": { "id": null, "id_2": null, "Name": "Punkt 74", "description": null, "timestamp": null, "begin": null, "end": null, "altitudeMode": null, "tessellate": -1, "extrude": 0, "visibility": -1, "drawOrder": null, "icon": null }, "geometry": { "type": "MultiPoint", "coordinates": [ [ 44.156861111111112, 23.024277777777776 ] ] } },
{ "type": "Feature", "properties": { "id": null, "id_2": null, "Name": "Punkt 75", "description": null, "timestamp": null, "begin": null, "end": null, "altitudeMode": null, "tessellate": -1, "extrude": 0, "visibility": -1, "drawOrder": null, "icon": null }, "geometry": { "type": "MultiPoint", "coordinates": [ [ 44.200333333333333, 22.99227777777778 ] ] } },
{ "type": "Feature", "properties": { "id": null, "id_2": null, "Name": "Punkt 76", "description": null, "timestamp": null, "begin": null, "end": null, "altitudeMode": null, "tessellate": -1, "extrude": 0, "visibility": -1, "drawOrder": null, "icon": null }, "geometry": { "type": "MultiPoint", "coordinates": [ [ 44.07588888888889, 23.028138888888886 ] ] } },
{ "type": "Feature", "properties": { "id": null, "id_2": null, "Name": "Punkt 77", "description": null, "timestamp": null, "begin": null, "end": null, "altitudeMode": null, "tessellate": -1, "extrude": 0, "visibility": -1, "drawOrder": null, "icon": null }, "geometry": { "type": "MultiPoint", "coordinates": [ [ 44.03758333333333, 22.964861111111109 ] ] } },
{ "type": "Feature", "properties": { "id": null, "id_2": null, "Name": "Punkt 78", "description": null, "timestamp": null, "begin": null, "end": null, "altitudeMode": null, "tessellate": -1, "extrude": 0, "visibility": -1, "drawOrder": null, "icon": null }, "geometry": { "type": "MultiPoint", "coordinates": [ [ 44.056416666666664, 22.952444444444442 ] ] } },
{ "type": "Feature", "properties": { "id": null, "id_2": null, "Name": "Punkt 79", "description": null, "timestamp": null, "begin": null, "end": null, "altitudeMode": null, "tessellate": -1, "extrude": 0, "visibility": -1, "drawOrder": null, "icon": null }, "geometry": { "type": "MultiPoint", "coordinates": [ [ 44.06594444444444, 22.955416666666665 ] ] } },
{ "type": "Feature", "properties": { "id": null, "id_2": null, "Name": "Punkt 80", "description": null, "timestamp": null, "begin": null, "end": null, "altitudeMode": null, "tessellate": -1, "extrude": 0, "visibility": -1, "drawOrder": null, "icon": null }, "geometry": { "type": "MultiPoint", "coordinates": [ [ 44.076027777777782, 22.961944444444445 ] ] } },
{ "type": "Feature", "properties": { "id": null, "id_2": null, "Name": "Punkt 81", "description": null, "timestamp": null, "begin": null, "end": null, "altitudeMode": null, "tessellate": -1, "extrude": 0, "visibility": -1, "drawOrder": null, "icon": null }, "geometry": { "type": "MultiPoint", "coordinates": [ [ 44.089388888888891, 22.978138888888886 ] ] } },
{ "type": "Feature", "properties": { "id": null, "id_2": null, "Name": "Punkt 82", "description": null, "timestamp": null, "begin": null, "end": null, "altitudeMode": null, "tessellate": -1, "extrude": 0, "visibility": -1, "drawOrder": null, "icon": null }, "geometry": { "type": "MultiPoint", "coordinates": [ [ 44.11025, 22.972277777777776 ] ] } },
{ "type": "Feature", "properties": { "id": null, "id_2": null, "Name": "Punkt 83", "description": null, "timestamp": null, "begin": null, "end": null, "altitudeMode": null, "tessellate": -1, "extrude": 0, "visibility": -1, "drawOrder": null, "icon": null }, "geometry": { "type": "MultiPoint", "coordinates": [ [ 44.127472222222224, 23.01775 ] ] } },
{ "type": "Feature", "properties": { "id": null, "id_2": null, "Name": "Punkt 84", "description": null, "timestamp": null, "begin": null, "end": null, "altitudeMode": null, "tessellate": -1, "extrude": 0, "visibility": -1, "drawOrder": null, "icon": null }, "geometry": { "type": "MultiPoint", "coordinates": [ [ 44.106388888888887, 23.074194444444444 ] ] } },
{ "type": "Feature", "properties": { "id": null, "id_2": null, "Name": "Punkt 85", "description": null, "timestamp": null, "begin": null, "end": null, "altitudeMode": null, "tessellate": -1, "extrude": 0, "visibility": -1, "drawOrder": null, "icon": null }, "geometry": { "type": "MultiPoint", "coordinates": [ [ 44.135361111111109, 23.085916666666666 ] ] } },
{ "type": "Feature", "properties": { "id": null, "id_2": null, "Name": "Punkt 86", "description": null, "timestamp": null, "begin": null, "end": null, "altitudeMode": null, "tessellate": -1, "extrude": 0, "visibility": -1, "drawOrder": null, "icon": null }, "geometry": { "type": "MultiPoint", "coordinates": [ [ 44.130055555555558, 23.097083333333334 ] ] } },
{ "type": "Feature", "properties": { "id": null, "id_2": null, "Name": "Punkt 87", "description": null, "timestamp": null, "begin": null, "end": null, "altitudeMode": null, "tessellate": -1, "extrude": 0, "visibility": -1, "drawOrder": null, "icon": null }, "geometry": { "type": "MultiPoint", "coordinates": [ [ 44.1195, 23.112527777777778 ] ] } },
{ "type": "Feature", "properties": { "id": null, "id_2": null, "Name": "Punkt 88", "description": null, "timestamp": null, "begin": null, "end": null, "altitudeMode": null, "tessellate": -1, "extrude": 0, "visibility": -1, "drawOrder": null, "icon": null }, "geometry": { "type": "MultiPoint", "coordinates": [ [ 44.101611111111112, 23.124833333333335 ] ] } },
{ "type": "Feature", "properties": { "id": null, "id_2": null, "Name": "Punkt 89", "description": null, "timestamp": null, "begin": null, "end": null, "altitudeMode": null, "tessellate": -1, "extrude": 0, "visibility": -1, "drawOrder": null, "icon": null }, "geometry": { "type": "MultiPoint", "coordinates": [ [ 44.12766666666667, 23.138888888888889 ] ] } },
{ "type": "Feature", "properties": { "id": null, "id_2": null, "Name": "Punkt 90", "description": null, "timestamp": null, "begin": null, "end": null, "altitudeMode": null, "tessellate": -1, "extrude": 0, "visibility": -1, "drawOrder": null, "icon": null }, "geometry": { "type": "MultiPoint", "coordinates": [ [ 44.114888888888892, 23.159694444444444 ] ] } },
{ "type": "Feature", "properties": { "id": null, "id_2": null, "Name": "Punkt 91", "description": null, "timestamp": null, "begin": null, "end": null, "altitudeMode": null, "tessellate": -1, "extrude": 0, "visibility": -1, "drawOrder": null, "icon": null }, "geometry": { "type": "MultiPoint", "coordinates": [ [ 44.107166666666672, 23.161194444444444 ] ] } },
{ "type": "Feature", "properties": { "id": null, "id_2": null, "Name": "Punkt 92", "description": null, "timestamp": null, "begin": null, "end": null, "altitudeMode": null, "tessellate": -1, "extrude": 0, "visibility": -1, "drawOrder": null, "icon": null }, "geometry": { "type": "MultiPoint", "coordinates": [ [ 44.104833333333332, 23.160888888888888 ] ] } },
{ "type": "Feature", "properties": { "id": null, "id_2": null, "Name": "Punkt 93", "description": null, "timestamp": null, "begin": null, "end": null, "altitudeMode": null, "tessellate": -1, "extrude": 0, "visibility": -1, "drawOrder": null, "icon": null }, "geometry": { "type": "MultiPoint", "coordinates": [ [ 44.073, 23.140416666666667 ] ] } },
{ "type": "Feature", "properties": { "id": null, "id_2": null, "Name": "Punkt 94", "description": null, "timestamp": null, "begin": null, "end": null, "altitudeMode": null, "tessellate": -1, "extrude": 0, "visibility": -1, "drawOrder": null, "icon": null }, "geometry": { "type": "MultiPoint", "coordinates": [ [ 44.042027777777776, 23.123472222222222 ] ] } },
{ "type": "Feature", "properties": { "id": null, "id_2": null, "Name": "Punkt 95", "description": null, "timestamp": null, "begin": null, "end": null, "altitudeMode": null, "tessellate": -1, "extrude": 0, "visibility": -1, "drawOrder": null, "icon": null }, "geometry": { "type": "MultiPoint", "coordinates": [ [ 44.042833333333334, 23.12275 ] ] } },
{ "type": "Feature", "properties": { "id": null, "id_2": null, "Name": "Punkt 96", "description": null, "timestamp": null, "begin": null, "end": null, "altitudeMode": null, "tessellate": -1, "extrude": 0, "visibility": -1, "drawOrder": null, "icon": null }, "geometry": { "type": "MultiPoint", "coordinates": [ [ 44.031888888888886, 23.122083333333332 ] ] } },
{ "type": "Feature", "properties": { "id": null, "id_2": null, "Name": "Punkt 97", "description": null, "timestamp": null, "begin": null, "end": null, "altitudeMode": null, "tessellate": -1, "extrude": 0, "visibility": -1, "drawOrder": null, "icon": null }, "geometry": { "type": "MultiPoint", "coordinates": [ [ 44.003972222222224, 23.097111111111111 ] ] } },
{ "type": "Feature", "properties": { "id": null, "id_2": null, "Name": "Punkt 98", "description": null, "timestamp": null, "begin": null, "end": null, "altitudeMode": null, "tessellate": -1, "extrude": 0, "visibility": -1, "drawOrder": null, "icon": null }, "geometry": { "type": "MultiPoint", "coordinates": [ [ 44.014611111111108, 23.098611111111111 ] ] } },
{ "type": "Feature", "properties": { "id": null, "id_2": null, "Name": "Punkt 99", "description": null, "timestamp": null, "begin": null, "end": null, "altitudeMode": null, "tessellate": -1, "extrude": 0, "visibility": -1, "drawOrder": null, "icon": null }, "geometry": { "type": "MultiPoint", "coordinates": [ [ 44.013861111111112, 23.093277777777775 ] ] } },
{ "type": "Feature", "properties": { "id": null, "id_2": null, "Name": "Punkt 100", "description": null, "timestamp": null, "begin": null, "end": null, "altitudeMode": null, "tessellate": -1, "extrude": 0, "visibility": -1, "drawOrder": null, "icon": null }, "geometry": { "type": "MultiPoint", "coordinates": [ [ 44.015722222222223, 23.079444444444444 ] ] } },
{ "type": "Feature", "properties": { "id": null, "id_2": null, "Name": "Punkt 101", "description": null, "timestamp": null, "begin": null, "end": null, "altitudeMode": null, "tessellate": -1, "extrude": 0, "visibility": -1, "drawOrder": null, "icon": null }, "geometry": { "type": "MultiPoint", "coordinates": [ [ 44.017916666666665, 23.041333333333334 ] ] } },
{ "type": "Feature", "properties": { "id": null, "id_2": null, "Name": "Punkt 102", "description": null, "timestamp": null, "begin": null, "end": null, "altitudeMode": null, "tessellate": -1, "extrude": 0, "visibility": -1, "drawOrder": null, "icon": null }, "geometry": { "type": "MultiPoint", "coordinates": [ [ 44.024972222222225, 23.030944444444444 ] ] } },
{ "type": "Feature", "properties": { "id": null, "id_2": null, "Name": "Punkt 103", "description": null, "timestamp": null, "begin": null, "end": null, "altitudeMode": null, "tessellate": -1, "extrude": 0, "visibility": -1, "drawOrder": null, "icon": null }, "geometry": { "type": "MultiPoint", "coordinates": [ [ 44.025805555555557, 22.997166666666669 ] ] } },
{ "type": "Feature", "properties": { "id": null, "id_2": null, "Name": "Punkt 104", "description": null, "timestamp": null, "begin": null, "end": null, "altitudeMode": null, "tessellate": -1, "extrude": 0, "visibility": -1, "drawOrder": null, "icon": null }, "geometry": { "type": "MultiPoint", "coordinates": [ [ 44.024777777777778, 22.996833333333335 ] ] } },
{ "type": "Feature", "properties": { "id": null, "id_2": null, "Name": "Punkt 105", "description": null, "timestamp": null, "begin": null, "end": null, "altitudeMode": null, "tessellate": -1, "extrude": 0, "visibility": -1, "drawOrder": null, "icon": null }, "geometry": { "type": "MultiPoint", "coordinates": [ [ 43.980972222222221, 23.013 ] ] } },
{ "type": "Feature", "properties": { "id": null, "id_2": null, "Name": "Punkt 106", "description": null, "timestamp": null, "begin": null, "end": null, "altitudeMode": null, "tessellate": -1, "extrude": 0, "visibility": -1, "drawOrder": null, "icon": null }, "geometry": { "type": "MultiPoint", "coordinates": [ [ 44.02686111111111, 23.003777777777778 ] ] } },
{ "type": "Feature", "properties": { "id": null, "id_2": null, "Name": "Punkt 107", "description": null, "timestamp": null, "begin": null, "end": null, "altitudeMode": null, "tessellate": -1, "extrude": 0, "visibility": -1, "drawOrder": null, "icon": null }, "geometry": { "type": "MultiPoint", "coordinates": [ [ 44.025972222222222, 23.003027777777778 ] ] } },
{ "type": "Feature", "properties": { "id": null, "id_2": null, "Name": "Punkt 108", "description": null, "timestamp": null, "begin": null, "end": null, "altitudeMode": null, "tessellate": -1, "extrude": 0, "visibility": -1, "drawOrder": null, "icon": null }, "geometry": { "type": "MultiPoint", "coordinates": [ [ 44.015527777777777, 22.995666666666668 ] ] } },
{ "type": "Feature", "properties": { "id": null, "id_2": null, "Name": "Punkt 109", "description": null, "timestamp": null, "begin": null, "end": null, "altitudeMode": null, "tessellate": -1, "extrude": 0, "visibility": -1, "drawOrder": null, "icon": null }, "geometry": { "type": "MultiPoint", "coordinates": [ [ 44.015194444444447, 22.995722222222224 ] ] } },
{ "type": "Feature", "properties": { "id": null, "id_2": null, "Name": "Punkt 110", "description": null, "timestamp": null, "begin": null, "end": null, "altitudeMode": null, "tessellate": -1, "extrude": 0, "visibility": -1, "drawOrder": null, "icon": null }, "geometry": { "type": "MultiPoint", "coordinates": [ [ 44.02352777777778, 22.992111111111111 ] ] } },
{ "type": "Feature", "properties": { "id": null, "id_2": null, "Name": "Punkt 111", "description": null, "timestamp": null, "begin": null, "end": null, "altitudeMode": null, "tessellate": -1, "extrude": 0, "visibility": -1, "drawOrder": null, "icon": null }, "geometry": { "type": "MultiPoint", "coordinates": [ [ 44.02419444444444, 22.992055555555556 ] ] } },
{ "type": "Feature", "properties": { "id": null, "id_2": null, "Name": "Punkt 112", "description": null, "timestamp": null, "begin": null, "end": null, "altitudeMode": null, "tessellate": -1, "extrude": 0, "visibility": -1, "drawOrder": null, "icon": null }, "geometry": { "type": "MultiPoint", "coordinates": [ [ 44.026083333333332, 22.993 ] ] } },
{ "type": "Feature", "properties": { "id": null, "id_2": null, "Name": "Punkt 113", "description": null, "timestamp": null, "begin": null, "end": null, "altitudeMode": null, "tessellate": -1, "extrude": 0, "visibility": -1, "drawOrder": null, "icon": null }, "geometry": { "type": "MultiPoint", "coordinates": [ [ 44.026305555555552, 22.992638888888891 ] ] } },
{ "type": "Feature", "properties": { "id": null, "id_2": null, "Name": "Punkt 114", "description": null, "timestamp": null, "begin": null, "end": null, "altitudeMode": null, "tessellate": -1, "extrude": 0, "visibility": -1, "drawOrder": null, "icon": null }, "geometry": { "type": "MultiPoint", "coordinates": [ [ 44.0295, 22.995694444444446 ] ] } },
{ "type": "Feature", "properties": { "id": null, "id_2": null, "Name": "Punkt 115", "description": null, "timestamp": null, "begin": null, "end": null, "altitudeMode": null, "tessellate": -1, "extrude": 0, "visibility": -1, "drawOrder": null, "icon": null }, "geometry": { "type": "MultiPoint", "coordinates": [ [ 44.03169444444444, 22.993277777777777 ] ] } }
]
}
