{"type":"FeatureCollection","name":"GlobalKites - Crescents","features":[{"type":"Feature","geometry":{"type":"Point","coordinates":[57.03928618049371,45.86086150376255]},"properties":{"ID":"CR1","Orient":223,"_layer":"GlobalKites - Crescents"}},{"type":"Feature","geometry":{"type":"Point","coordinates":[54.97646354754801,43.53637284279163]},"properties":{"ID":"CR2","Orient":293,"_layer":"GlobalKites - Crescents"}},{"type":"Feature","geometry":{"type":"Point","coordinates":[54.97886524178853,43.54153858616552]},"properties":{"ID":"CR3","Orient":304,"_layer":"GlobalKites - Crescents"}},{"type":"Feature","geometry":{"type":"Point","coordinates":[54.95688076289861,43.46276795528245]},"properties":{"ID":"CR4","Orient":58,"_layer":"GlobalKites - Crescents"}},{"type":"Feature","geometry":{"type":"Point","coordinates":[55.02886593112061,43.18770937726782]},"properties":{"ID":"CR5","Orient":302,"_layer":"GlobalKites - Crescents"}},{"type":"Feature","geometry":{"type":"Point","coordinates":[55.36761078304273,45.255068395931566]},"properties":{"ID":"CR6","Orient":324,"_layer":"GlobalKites - Crescents"}},{"type":"Feature","geometry":{"type":"Point","coordinates":[55.03244306072427,43.203528742208896]},"properties":{"ID":"CR7","Orient":281,"_layer":"GlobalKites - Crescents"}},{"type":"Feature","geometry":{"type":"Point","coordinates":[54.805545392670886,43.4352916020002]},"properties":{"ID":"CR8","Orient":307,"_layer":"GlobalKites - Crescents"}},{"type":"Feature","geometry":{"type":"Point","coordinates":[54.976066492044886,43.464225784992685]},"properties":{"ID":"CR9","Orient":310,"_layer":"GlobalKites - Crescents"}},{"type":"Feature","geometry":{"type":"Point","coordinates":[54.779792703326414,43.69418618331051]},"properties":{"ID":"CR10","Orient":280,"_layer":"GlobalKites - Crescents"}},{"type":"Feature","geometry":{"type":"Point","coordinates":[55.09153259084734,43.75936904376765]},"properties":{"ID":"CR11","Orient":341,"_layer":"GlobalKites - Crescents"}},{"type":"Feature","geometry":{"type":"Point","coordinates":[54.78022558620815,43.708681493084]},"properties":{"ID":"CR12","Orient":155,"_layer":"GlobalKites - Crescents"}},{"type":"Feature","geometry":{"type":"Point","coordinates":[54.78415293034253,43.70281531521638]},"properties":{"ID":"CR13","Orient":268,"_layer":"GlobalKites - Crescents"}},{"type":"Feature","geometry":{"type":"Point","coordinates":[54.33753677828474,43.67193189896232]},"properties":{"ID":"CR14","Orient":285,"_layer":"GlobalKites - Crescents"}},{"type":"Feature","geometry":{"type":"Point","coordinates":[54.910374020392936,43.47039097297564]},"properties":{"ID":"CR15","Orient":244,"_layer":"GlobalKites - Crescents"}},{"type":"Feature","geometry":{"type":"Point","coordinates":[54.770299959578495,43.68782479526568]},"properties":{"ID":"CR16","Orient":30,"_layer":"GlobalKites - Crescents"}},{"type":"Feature","geometry":{"type":"Point","coordinates":[54.33890133819654,43.67697867968166]},"properties":{"ID":"CR17","Orient":281,"_layer":"GlobalKites - Crescents"}},{"type":"Feature","geometry":{"type":"Point","coordinates":[54.337900994457286,43.696502071928805]},"properties":{"ID":"CR18","Orient":254,"_layer":"GlobalKites - Crescents"}},{"type":"Feature","geometry":{"type":"Point","coordinates":[54.338922613541975,43.68659497065086]},"properties":{"ID":"CR19","Orient":268,"_layer":"GlobalKites - Crescents"}},{"type":"Feature","geometry":{"type":"Point","coordinates":[54.893357161161404,43.452754854070115]},"properties":{"ID":"CR20","Orient":327,"_layer":"GlobalKites - Crescents"}},{"type":"Feature","geometry":{"type":"Point","coordinates":[54.33026527827369,43.65968839400783]},"properties":{"ID":"CR21","Orient":305,"_layer":"GlobalKites - Crescents"}},{"type":"Feature","geometry":{"type":"Point","coordinates":[54.648273343524444,43.57817983499315]},"properties":{"ID":"CR22","Orient":302,"_layer":"GlobalKites - Crescents"}},{"type":"Feature","geometry":{"type":"Point","coordinates":[54.33814930165667,43.692294202978]},"properties":{"ID":"CR23","Orient":290,"_layer":"GlobalKites - Crescents"}},{"type":"Feature","geometry":{"type":"Point","coordinates":[54.651419893967734,43.58198112458085]},"properties":{"ID":"CR24","Orient":296,"_layer":"GlobalKites - Crescents"}},{"type":"Feature","geometry":{"type":"Point","coordinates":[54.65667466058387,43.589238013996]},"properties":{"ID":"CR25","Orient":247,"_layer":"GlobalKites - Crescents"}},{"type":"Feature","geometry":{"type":"Point","coordinates":[54.52797799160129,43.606937554426025]},"properties":{"ID":"CR26","Orient":257,"_layer":"GlobalKites - Crescents"}},{"type":"Feature","geometry":{"type":"Point","coordinates":[54.52807318784899,43.614592764617946]},"properties":{"ID":"CR27","Orient":264,"_layer":"GlobalKites - Crescents"}},{"type":"Feature","geometry":{"type":"Point","coordinates":[57.5741230532586,45.699786882017975]},"properties":{"ID":"CR28","Orient":357,"_layer":"GlobalKites - Crescents"}},{"type":"Feature","geometry":{"type":"Point","coordinates":[57.56056576702313,45.70099310622478]},"properties":{"ID":"CR29","Orient":358,"_layer":"GlobalKites - Crescents"}},{"type":"Feature","geometry":{"type":"Point","coordinates":[57.57841610742158,45.702030722397254]},"properties":{"ID":"CR30","Orient":288,"_layer":"GlobalKites - Crescents"}},{"type":"Feature","geometry":{"type":"Point","coordinates":[54.325951323512754,43.64736062074055]},"properties":{"ID":"CR31","Orient":283,"_layer":"GlobalKites - Crescents"}},{"type":"Feature","geometry":{"type":"Point","coordinates":[56.93911890095679,45.62897531840914]},"properties":{"ID":"CR32","Orient":112,"_layer":"GlobalKites - Crescents"}},{"type":"Feature","geometry":{"type":"Point","coordinates":[55.58385380551967,45.74921038586884]},"properties":{"ID":"CR33","Orient":355,"_layer":"GlobalKites - Crescents"}},{"type":"Feature","geometry":{"type":"Point","coordinates":[55.56712821468764,45.747863805882794]},"properties":{"ID":"CR34","Orient":11,"_layer":"GlobalKites - Crescents"}},{"type":"Feature","geometry":{"type":"Point","coordinates":[55.5896121854413,45.46415306517476]},"properties":{"ID":"CR35","Orient":286,"_layer":"GlobalKites - Crescents"}},{"type":"Feature","geometry":{"type":"Point","coordinates":[55.9118286170537,45.8872955369069]},"properties":{"ID":"CR36","Orient":331,"_layer":"GlobalKites - Crescents"}},{"type":"Feature","geometry":{"type":"Point","coordinates":[55.93715211662032,45.89622155432771]},"properties":{"ID":"CR37","Orient":287,"_layer":"GlobalKites - Crescents"}},{"type":"Feature","geometry":{"type":"Point","coordinates":[55.089556039628796,44.05704690769708]},"properties":{"ID":"CR38","Orient":346,"_layer":"GlobalKites - Crescents"}},{"type":"Feature","geometry":{"type":"Point","coordinates":[55.09557074714426,44.05853202223568]},"properties":{"ID":"CR39","Orient":320,"_layer":"GlobalKites - Crescents"}},{"type":"Feature","geometry":{"type":"Point","coordinates":[55.115977941949666,44.065034958289104]},"properties":{"ID":"CR40","Orient":356,"_layer":"GlobalKites - Crescents"}},{"type":"Feature","geometry":{"type":"Point","coordinates":[55.12380331056331,44.06605778879737]},"properties":{"ID":"CR41","Orient":329,"_layer":"GlobalKites - Crescents"}},{"type":"Feature","geometry":{"type":"Point","coordinates":[55.21572492809436,44.25479656866059]},"properties":{"ID":"CR42","Orient":311,"_layer":"GlobalKites - Crescents"}},{"type":"Feature","geometry":{"type":"Point","coordinates":[55.22875633795171,44.262920152343135]},"properties":{"ID":"CR43","Orient":299,"_layer":"GlobalKites - Crescents"}},{"type":"Feature","geometry":{"type":"Point","coordinates":[55.230723138374415,44.2679499829946]},"properties":{"ID":"CR44","Orient":266,"_layer":"GlobalKites - Crescents"}},{"type":"Feature","geometry":{"type":"Point","coordinates":[55.257172321023816,44.33154367918716]},"properties":{"ID":"CR45","Orient":18,"_layer":"GlobalKites - Crescents"}},{"type":"Feature","geometry":{"type":"Point","coordinates":[55.26897439356566,44.33322166767478]},"properties":{"ID":"CR46","Orient":343,"_layer":"GlobalKites - Crescents"}},{"type":"Feature","geometry":{"type":"Point","coordinates":[55.2695981576417,45.025490618299976]},"properties":{"ID":"CR47","Orient":322,"_layer":"GlobalKites - Crescents"}},{"type":"Feature","geometry":{"type":"Point","coordinates":[55.2624432587518,45.018975571225525]},"properties":{"ID":"CR48","Orient":315,"_layer":"GlobalKites - Crescents"}},{"type":"Feature","geometry":{"type":"Point","coordinates":[55.30716810378219,45.0303959686729]},"properties":{"ID":"CR49","Orient":8,"_layer":"GlobalKites - Crescents"}},{"type":"Feature","geometry":{"type":"Point","coordinates":[55.29986973406348,45.02961172220038]},"properties":{"ID":"CR50","Orient":359,"_layer":"GlobalKites - Crescents"}},{"type":"Feature","geometry":{"type":"Point","coordinates":[55.29268932738695,45.02914920106175]},"properties":{"ID":"CR51","Orient":354,"_layer":"GlobalKites - Crescents"}},{"type":"Feature","geometry":{"type":"Point","coordinates":[55.28155501958566,45.11581423890961]},"properties":{"ID":"CR52","Orient":321,"_layer":"GlobalKites - Crescents"}},{"type":"Feature","geometry":{"type":"Point","coordinates":[55.28536236423251,45.11882657761082]},"properties":{"ID":"CR53","Orient":318,"_layer":"GlobalKites - Crescents"}},{"type":"Feature","geometry":{"type":"Point","coordinates":[55.29413322147229,45.12579238138363]},"properties":{"ID":"CR54","Orient":320,"_layer":"GlobalKites - Crescents"}},{"type":"Feature","geometry":{"type":"Point","coordinates":[55.289204410028226,45.212534129789354]},"properties":{"ID":"CR55","Orient":328,"_layer":"GlobalKites - Crescents"}},{"type":"Feature","geometry":{"type":"Point","coordinates":[55.32607825145895,44.373219039986964]},"properties":{"ID":"CR56","Orient":289,"_layer":"GlobalKites - Crescents"}},{"type":"Feature","geometry":{"type":"Point","coordinates":[55.342772458475494,44.38092020308626]},"properties":{"ID":"CR57","Orient":311,"_layer":"GlobalKites - Crescents"}},{"type":"Feature","geometry":{"type":"Point","coordinates":[55.354265886574275,44.392178907196865]},"properties":{"ID":"CR58","Orient":308,"_layer":"GlobalKites - Crescents"}},{"type":"Feature","geometry":{"type":"Point","coordinates":[55.448047951629725,44.43811009462978]},"properties":{"ID":"CR59","Orient":322,"_layer":"GlobalKites - Crescents"}},{"type":"Feature","geometry":{"type":"Point","coordinates":[55.456255130873714,44.438110640442886]},"properties":{"ID":"CR60","Orient":357,"_layer":"GlobalKites - Crescents"}},{"type":"Feature","geometry":{"type":"Point","coordinates":[55.464208689111466,44.442702345643106]},"properties":{"ID":"CR61","Orient":348,"_layer":"GlobalKites - Crescents"}},{"type":"Feature","geometry":{"type":"Point","coordinates":[55.272784504628696,44.43365162687312]},"properties":{"ID":"CR62","Orient":354,"_layer":"GlobalKites - Crescents"}},{"type":"Feature","geometry":{"type":"Point","coordinates":[55.42849118813231,45.04593962008065]},"properties":{"ID":"CR63","Orient":350,"_layer":"GlobalKites - Crescents"}},{"type":"Feature","geometry":{"type":"Point","coordinates":[55.43364331366325,45.047742326216955]},"properties":{"ID":"CR64","Orient":312,"_layer":"GlobalKites - Crescents"}},{"type":"Feature","geometry":{"type":"Point","coordinates":[55.43839410957798,45.05006745580988]},"properties":{"ID":"CR65","Orient":342,"_layer":"GlobalKites - Crescents"}},{"type":"Feature","geometry":{"type":"Point","coordinates":[55.470213110621934,45.05765581778047]},"properties":{"ID":"CR66","Orient":324,"_layer":"GlobalKites - Crescents"}},{"type":"Feature","geometry":{"type":"Point","coordinates":[55.47566881094647,45.05981222162391]},"properties":{"ID":"CR67","Orient":327,"_layer":"GlobalKites - Crescents"}},{"type":"Feature","geometry":{"type":"Point","coordinates":[55.51740766442437,45.05594795017421]},"properties":{"ID":"CR68","Orient":341,"_layer":"GlobalKites - Crescents"}},{"type":"Feature","geometry":{"type":"Point","coordinates":[55.52557767928507,45.06042593925798]},"properties":{"ID":"CR69","Orient":354,"_layer":"GlobalKites - Crescents"}},{"type":"Feature","geometry":{"type":"Point","coordinates":[55.53089070242348,45.06332490818103]},"properties":{"ID":"CR70","Orient":304,"_layer":"GlobalKites - Crescents"}},{"type":"Feature","geometry":{"type":"Point","coordinates":[55.547479908880256,45.07818820311364]},"properties":{"ID":"CR71","Orient":323,"_layer":"GlobalKites - Crescents"}},{"type":"Feature","geometry":{"type":"Point","coordinates":[55.5622549206012,45.08739549610182]},"properties":{"ID":"CR72","Orient":334,"_layer":"GlobalKites - Crescents"}},{"type":"Feature","geometry":{"type":"Point","coordinates":[55.559555672182476,44.02386564363143]},"properties":{"ID":"CR73","Orient":350,"_layer":"GlobalKites - Crescents"}},{"type":"Feature","geometry":{"type":"Point","coordinates":[55.535853454395294,44.02910742273083]},"properties":{"ID":"CR74","Orient":305,"_layer":"GlobalKites - Crescents"}},{"type":"Feature","geometry":{"type":"Point","coordinates":[55.525055978431375,44.02323063901785]},"properties":{"ID":"CR75","Orient":340,"_layer":"GlobalKites - Crescents"}},{"type":"Feature","geometry":{"type":"Point","coordinates":[55.53712598831324,44.04385367671892]},"properties":{"ID":"CR76","Orient":288,"_layer":"GlobalKites - Crescents"}},{"type":"Feature","geometry":{"type":"Point","coordinates":[55.450087994592515,45.145249351052435]},"properties":{"ID":"CR77","Orient":312,"_layer":"GlobalKites - Crescents"}},{"type":"Feature","geometry":{"type":"Point","coordinates":[55.88901712850887,43.866506643893665]},"properties":{"ID":"CR78","Orient":273,"_layer":"GlobalKites - Crescents"}},{"type":"Feature","geometry":{"type":"Point","coordinates":[55.88833388755396,43.859584222960414]},"properties":{"ID":"CR79","Orient":287,"_layer":"GlobalKites - Crescents"}},{"type":"Feature","geometry":{"type":"Point","coordinates":[55.886626571092684,43.85474237060297]},"properties":{"ID":"CR80","Orient":280,"_layer":"GlobalKites - Crescents"}},{"type":"Feature","geometry":{"type":"Point","coordinates":[55.69637337377809,43.84839902938165]},"properties":{"ID":"CR81","Orient":336,"_layer":"GlobalKites - Crescents"}},{"type":"Feature","geometry":{"type":"Point","coordinates":[55.87268459542699,43.84407244762322]},"properties":{"ID":"CR82","Orient":292,"_layer":"GlobalKites - Crescents"}},{"type":"Feature","geometry":{"type":"Point","coordinates":[55.31764146378795,44.46850415361548]},"properties":{"ID":"CR83","Orient":295,"_layer":"GlobalKites - Crescents"}},{"type":"Feature","geometry":{"type":"Point","coordinates":[55.31331434199116,44.44981039868694]},"properties":{"ID":"CR84","Orient":290,"_layer":"GlobalKites - Crescents"}},{"type":"Feature","geometry":{"type":"Point","coordinates":[55.30816230038937,44.44434160117807]},"properties":{"ID":"CR85","Orient":300,"_layer":"GlobalKites - Crescents"}},{"type":"Feature","geometry":{"type":"Point","coordinates":[55.303263218465005,44.4429664349654]},"properties":{"ID":"CR86","Orient":315,"_layer":"GlobalKites - Crescents"}},{"type":"Feature","geometry":{"type":"Point","coordinates":[55.292137115447964,44.434868756949164]},"properties":{"ID":"CR87","Orient":328,"_layer":"GlobalKites - Crescents"}},{"type":"Feature","geometry":{"type":"Point","coordinates":[55.31189498553247,45.2011032410187]},"properties":{"ID":"CR88","Orient":317,"_layer":"GlobalKites - Crescents"}},{"type":"Feature","geometry":{"type":"Point","coordinates":[55.33234293999466,45.2027127989761]},"properties":{"ID":"CR89","Orient":358,"_layer":"GlobalKites - Crescents"}},{"type":"Feature","geometry":{"type":"Point","coordinates":[55.38060675955236,45.10285431796118]},"properties":{"ID":"CR90","Orient":328,"_layer":"GlobalKites - Crescents"}},{"type":"Feature","geometry":{"type":"Point","coordinates":[55.386531590697786,45.10576797180238]},"properties":{"ID":"CR91","Orient":319,"_layer":"GlobalKites - Crescents"}},{"type":"Feature","geometry":{"type":"Point","coordinates":[55.38965011629326,45.110362149735735]},"properties":{"ID":"CR92","Orient":272,"_layer":"GlobalKites - Crescents"}},{"type":"Feature","geometry":{"type":"Point","coordinates":[55.43236904437994,45.14401587540242]},"properties":{"ID":"CR93","Orient":12,"_layer":"GlobalKites - Crescents"}},{"type":"Feature","geometry":{"type":"Point","coordinates":[55.46016955422888,44.9250128955682]},"properties":{"ID":"CR94","Orient":300,"_layer":"GlobalKites - Crescents"}},{"type":"Feature","geometry":{"type":"Point","coordinates":[55.69252959086143,43.79107286615248]},"properties":{"ID":"CR95","Orient":252,"_layer":"GlobalKites - Crescents"}},{"type":"Feature","geometry":{"type":"Point","coordinates":[55.67566639078251,43.7787015009074]},"properties":{"ID":"CR96","Orient":353,"_layer":"GlobalKites - Crescents"}},{"type":"Feature","geometry":{"type":"Point","coordinates":[55.58146786903136,43.77589967143446]},"properties":{"ID":"CR97","Orient":295,"_layer":"GlobalKites - Crescents"}},{"type":"Feature","geometry":{"type":"Point","coordinates":[56.252595115455364,45.59308386586471]},"properties":{"ID":"CR98","Orient":322,"_layer":"GlobalKites - Crescents"}},{"type":"Feature","geometry":{"type":"Point","coordinates":[56.95486983237496,45.64291207940159]},"properties":{"ID":"CR99","Orient":142,"_layer":"GlobalKites - Crescents"}},{"type":"Feature","geometry":{"type":"Point","coordinates":[56.93908550762137,45.642432401211046]},"properties":{"ID":"CR100","Orient":54,"_layer":"GlobalKites - Crescents"}},{"type":"Feature","geometry":{"type":"Point","coordinates":[56.82696891267019,45.633118452566386]},"properties":{"ID":"CR101","Orient":192,"_layer":"GlobalKites - Crescents"}},{"type":"Feature","geometry":{"type":"Point","coordinates":[56.79391040956121,45.565365296024645]},"properties":{"ID":"CR102","Orient":319,"_layer":"GlobalKites - Crescents"}},{"type":"Feature","geometry":{"type":"Point","coordinates":[56.80110758940879,45.57124458458059]},"properties":{"ID":"CR103","Orient":305,"_layer":"GlobalKites - Crescents"}},{"type":"Feature","geometry":{"type":"Point","coordinates":[56.79102554139855,45.560929695267]},"properties":{"ID":"CR104","Orient":318,"_layer":"GlobalKites - Crescents"}},{"type":"Feature","geometry":{"type":"Point","coordinates":[56.75754831325843,45.548563674715844]},"properties":{"ID":"CR105","Orient":240,"_layer":"GlobalKites - Crescents"}},{"type":"Feature","geometry":{"type":"Point","coordinates":[56.75335395543326,45.55763875191432]},"properties":{"ID":"CR106","Orient":250,"_layer":"GlobalKites - Crescents"}},{"type":"Feature","geometry":{"type":"Point","coordinates":[56.754016812899465,45.570912585095506]},"properties":{"ID":"CR107","Orient":308,"_layer":"GlobalKites - Crescents"}},{"type":"Feature","geometry":{"type":"Point","coordinates":[55.53062783667693,44.151604300181944]},"properties":{"ID":"CR108","Orient":287,"_layer":"GlobalKites - Crescents"}},{"type":"Feature","geometry":{"type":"Point","coordinates":[55.52638084853532,44.14073919383365]},"properties":{"ID":"CR109","Orient":315,"_layer":"GlobalKites - Crescents"}},{"type":"Feature","geometry":{"type":"Point","coordinates":[55.61746475235107,44.335820142239456]},"properties":{"ID":"CR110","Orient":302,"_layer":"GlobalKites - Crescents"}},{"type":"Feature","geometry":{"type":"Point","coordinates":[55.625388392375505,44.349642063126]},"properties":{"ID":"CR111","Orient":302,"_layer":"GlobalKites - Crescents"}},{"type":"Feature","geometry":{"type":"Point","coordinates":[55.638801803202405,44.36214755321941]},"properties":{"ID":"CR112","Orient":298,"_layer":"GlobalKites - Crescents"}},{"type":"Feature","geometry":{"type":"Point","coordinates":[55.66360270160628,44.392872213994764]},"properties":{"ID":"CR113","Orient":294,"_layer":"GlobalKites - Crescents"}},{"type":"Feature","geometry":{"type":"Point","coordinates":[55.65611002525647,44.49878914397568]},"properties":{"ID":"CR114","Orient":262,"_layer":"GlobalKites - Crescents"}},{"type":"Feature","geometry":{"type":"Point","coordinates":[55.74106820309157,44.58402578123282]},"properties":{"ID":"CR115","Orient":4,"_layer":"GlobalKites - Crescents"}},{"type":"Feature","geometry":{"type":"Point","coordinates":[55.76093207090495,44.59340788674898]},"properties":{"ID":"CR116","Orient":308,"_layer":"GlobalKites - Crescents"}},{"type":"Feature","geometry":{"type":"Point","coordinates":[55.05802121548612,44.49088126863465]},"properties":{"ID":"CR117","Orient":340,"_layer":"GlobalKites - Crescents"}},{"type":"Feature","geometry":{"type":"Point","coordinates":[55.19168685266607,44.45377732174336]},"properties":{"ID":"CR118","Orient":8,"_layer":"GlobalKites - Crescents"}},{"type":"Feature","geometry":{"type":"Point","coordinates":[55.1776454069422,44.46263859572776]},"properties":{"ID":"CR119","Orient":50,"_layer":"GlobalKites - Crescents"}},{"type":"Feature","geometry":{"type":"Point","coordinates":[55.14838116882487,44.47442866516751]},"properties":{"ID":"CR120","Orient":23,"_layer":"GlobalKites - Crescents"}},{"type":"Feature","geometry":{"type":"Point","coordinates":[55.04932443846471,44.490771897419016]},"properties":{"ID":"CR121","Orient":6,"_layer":"GlobalKites - Crescents"}},{"type":"Feature","geometry":{"type":"Point","coordinates":[55.127174831991724,44.39983618794131]},"properties":{"ID":"CR122","Orient":343,"_layer":"GlobalKites - Crescents"}},{"type":"Feature","geometry":{"type":"Point","coordinates":[55.074415361760316,44.38367874311724]},"properties":{"ID":"CR123","Orient":340,"_layer":"GlobalKites - Crescents"}},{"type":"Feature","geometry":{"type":"Point","coordinates":[55.102395009524145,44.38624782013214]},"properties":{"ID":"CR124","Orient":350,"_layer":"GlobalKites - Crescents"}},{"type":"Feature","geometry":{"type":"Point","coordinates":[55.08919265102049,44.38628898426946]},"properties":{"ID":"CR125","Orient":358,"_layer":"GlobalKites - Crescents"}},{"type":"Feature","geometry":{"type":"Point","coordinates":[54.44396154643669,44.25872539424576]},"properties":{"ID":"CR126","Orient":314,"_layer":"GlobalKites - Crescents"}},{"type":"Feature","geometry":{"type":"Point","coordinates":[54.4535393608019,44.26178036008456]},"properties":{"ID":"CR127","Orient":338,"_layer":"GlobalKites - Crescents"}},{"type":"Feature","geometry":{"type":"Point","coordinates":[54.43106097310897,44.25261900883803]},"properties":{"ID":"CR128","Orient":339,"_layer":"GlobalKites - Crescents"}},{"type":"Feature","geometry":{"type":"Point","coordinates":[54.78935229617048,44.363853346877825]},"properties":{"ID":"CR129","Orient":340,"_layer":"GlobalKites - Crescents"}},{"type":"Feature","geometry":{"type":"Point","coordinates":[55.20199999955154,45.17218100033562]},"properties":{"ID":"CR130","Orient":334,"_layer":"GlobalKites - Crescents"}},{"type":"Feature","geometry":{"type":"Point","coordinates":[55.172999999967494,45.161250000033256]},"properties":{"ID":"CR131","Orient":358,"_layer":"GlobalKites - Crescents"}},{"type":"Feature","geometry":{"type":"Point","coordinates":[55.144999999381376,45.2102580001178]},"properties":{"ID":"CR132","Orient":331,"_layer":"GlobalKites - Crescents"}},{"type":"Feature","geometry":{"type":"Point","coordinates":[55.137999999746405,45.20599999986375]},"properties":{"ID":"CR133","Orient":323,"_layer":"GlobalKites - Crescents"}},{"type":"Feature","geometry":{"type":"Point","coordinates":[55.1299999998286,45.20392299986895]},"properties":{"ID":"CR134","Orient":326,"_layer":"GlobalKites - Crescents"}},{"type":"Feature","geometry":{"type":"Point","coordinates":[55.20899999985561,45.17668400005262]},"properties":{"ID":"CR135","Orient":307,"_layer":"GlobalKites - Crescents"}},{"type":"Feature","geometry":{"type":"Point","coordinates":[56.39516965328771,44.62404341528281]},"properties":{"ID":"CR136","Orient":284,"_layer":"GlobalKites - Crescents"}},{"type":"Feature","geometry":{"type":"Point","coordinates":[56.378316799835844,44.61218694089358]},"properties":{"ID":"CR137","Orient":312,"_layer":"GlobalKites - Crescents"}},{"type":"Feature","geometry":{"type":"Point","coordinates":[56.36945722456696,44.61259005729395]},"properties":{"ID":"CR138","Orient":22,"_layer":"GlobalKites - Crescents"}},{"type":"Feature","geometry":{"type":"Point","coordinates":[57.10281200945179,44.90646407632909]},"properties":{"ID":"CR139","Orient":316,"_layer":"GlobalKites - Crescents"}},{"type":"Feature","geometry":{"type":"Point","coordinates":[57.24236944500075,44.86745141393171]},"properties":{"ID":"CR140","Orient":240,"_layer":"GlobalKites - Crescents"}},{"type":"Feature","geometry":{"type":"Point","coordinates":[56.44985032523846,45.08230324521304]},"properties":{"ID":"CR141","Orient":303,"_layer":"GlobalKites - Crescents"}},{"type":"Feature","geometry":{"type":"Point","coordinates":[56.44397475107651,45.07485960963606]},"properties":{"ID":"CR142","Orient":311,"_layer":"GlobalKites - Crescents"}},{"type":"Feature","geometry":{"type":"Point","coordinates":[55.61046123262962,44.881350768108035]},"properties":{"ID":"CR143","Orient":278,"_layer":"GlobalKites - Crescents"}},{"type":"Feature","geometry":{"type":"Point","coordinates":[55.62215890013854,44.910009831939334]},"properties":{"ID":"CR144","Orient":291,"_layer":"GlobalKites - Crescents"}},{"type":"Feature","geometry":{"type":"Point","coordinates":[55.69650043155876,44.83452100416431]},"properties":{"ID":"CR145","Orient":294,"_layer":"GlobalKites - Crescents"}},{"type":"Feature","geometry":{"type":"Point","coordinates":[55.69602930348325,44.84201947796052]},"properties":{"ID":"CR146","Orient":281,"_layer":"GlobalKites - Crescents"}},{"type":"Feature","geometry":{"type":"Point","coordinates":[55.69944439828089,44.84898844291391]},"properties":{"ID":"CR147","Orient":296,"_layer":"GlobalKites - Crescents"}},{"type":"Feature","geometry":{"type":"Point","coordinates":[55.71187315312523,44.857014885554555]},"properties":{"ID":"CR148","Orient":281,"_layer":"GlobalKites - Crescents"}},{"type":"Feature","geometry":{"type":"Point","coordinates":[55.71348828635813,44.862183723184344]},"properties":{"ID":"CR149","Orient":289,"_layer":"GlobalKites - Crescents"}},{"type":"Feature","geometry":{"type":"Point","coordinates":[55.79654940543048,44.88782056000794]},"properties":{"ID":"CR150","Orient":270,"_layer":"GlobalKites - Crescents"}},{"type":"Feature","geometry":{"type":"Point","coordinates":[55.79750708892231,44.89425828461282]},"properties":{"ID":"CR151","Orient":284,"_layer":"GlobalKites - Crescents"}},{"type":"Feature","geometry":{"type":"Point","coordinates":[55.46412680640303,45.156912484577084]},"properties":{"ID":"CR152","Orient":320,"_layer":"GlobalKites - Crescents"}},{"type":"Feature","geometry":{"type":"Point","coordinates":[55.47069366852257,45.167136537777964]},"properties":{"ID":"CR153","Orient":317,"_layer":"GlobalKites - Crescents"}},{"type":"Feature","geometry":{"type":"Point","coordinates":[55.77767699492818,44.877971372772]},"properties":{"ID":"CR154","Orient":8,"_layer":"GlobalKites - Crescents"}},{"type":"Feature","geometry":{"type":"Point","coordinates":[55.881660288808305,44.86982842194095]},"properties":{"ID":"CR155","Orient":316,"_layer":"GlobalKites - Crescents"}},{"type":"Feature","geometry":{"type":"Point","coordinates":[55.89290323357096,44.87765036187617]},"properties":{"ID":"CR156","Orient":323,"_layer":"GlobalKites - Crescents"}},{"type":"Feature","geometry":{"type":"Point","coordinates":[55.034487084652106,45.026436076971045]},"properties":{"ID":"CR157","Orient":6,"_layer":"GlobalKites - Crescents"}},{"type":"Feature","geometry":{"type":"Point","coordinates":[56.06276827241658,44.52110110967338]},"properties":{"ID":"CR158","Orient":301,"_layer":"GlobalKites - Crescents"}},{"type":"Feature","geometry":{"type":"Point","coordinates":[55.040842386515685,45.02837509831811]},"properties":{"ID":"CR159","Orient":8,"_layer":"GlobalKites - Crescents"}},{"type":"Feature","geometry":{"type":"Point","coordinates":[55.054728934843,45.03123752236745]},"properties":{"ID":"CR160","Orient":317,"_layer":"GlobalKites - Crescents"}},{"type":"Feature","geometry":{"type":"Point","coordinates":[55.06257098151058,45.0391972981219]},"properties":{"ID":"CR161","Orient":315,"_layer":"GlobalKites - Crescents"}},{"type":"Feature","geometry":{"type":"Point","coordinates":[55.09800562393912,45.012546267325405]},"properties":{"ID":"CR162","Orient":347,"_layer":"GlobalKites - Crescents"}},{"type":"Feature","geometry":{"type":"Point","coordinates":[55.09198504938619,45.013791298685646]},"properties":{"ID":"CR163","Orient":1,"_layer":"GlobalKites - Crescents"}},{"type":"Feature","geometry":{"type":"Point","coordinates":[55.10742889802814,45.013359907823514]},"properties":{"ID":"CR164","Orient":291,"_layer":"GlobalKites - Crescents"}},{"type":"Feature","geometry":{"type":"Point","coordinates":[55.120044868179654,45.02161275560017]},"properties":{"ID":"CR165","Orient":340,"_layer":"GlobalKites - Crescents"}},{"type":"Feature","geometry":{"type":"Point","coordinates":[55.12849637631666,45.021379280851605]},"properties":{"ID":"CR166","Orient":7,"_layer":"GlobalKites - Crescents"}},{"type":"Feature","geometry":{"type":"Point","coordinates":[55.197149418579386,45.06780308805498]},"properties":{"ID":"CR167","Orient":24,"_layer":"GlobalKites - Crescents"}},{"type":"Feature","geometry":{"type":"Point","coordinates":[55.211928939322306,45.07475781477405]},"properties":{"ID":"CR168","Orient":321,"_layer":"GlobalKites - Crescents"}},{"type":"Feature","geometry":{"type":"Point","coordinates":[55.17444291679673,45.065569581561874]},"properties":{"ID":"CR169","Orient":6,"_layer":"GlobalKites - Crescents"}},{"type":"Feature","geometry":{"type":"Point","coordinates":[55.25137354187348,45.1061841814006]},"properties":{"ID":"CR170","Orient":17,"_layer":"GlobalKites - Crescents"}},{"type":"Feature","geometry":{"type":"Point","coordinates":[55.51208245264276,45.30628652695801]},"properties":{"ID":"CR171","Orient":327,"_layer":"GlobalKites - Crescents"}},{"type":"Feature","geometry":{"type":"Point","coordinates":[55.501469772449056,45.309728089563926]},"properties":{"ID":"CR172","Orient":57,"_layer":"GlobalKites - Crescents"}},{"type":"Feature","geometry":{"type":"Point","coordinates":[55.04339202143343,43.22929870867795]},"properties":{"ID":"CR173","Orient":302,"_layer":"GlobalKites - Crescents"}},{"type":"Feature","geometry":{"type":"Point","coordinates":[54.08942775800462,43.78704542281365]},"properties":{"ID":"CR174","Orient":252,"_layer":"GlobalKites - Crescents"}},{"type":"Feature","geometry":{"type":"Point","coordinates":[54.09008171311604,43.78321726958867]},"properties":{"ID":"CR175","Orient":325,"_layer":"GlobalKites - Crescents"}},{"type":"Feature","geometry":{"type":"Point","coordinates":[54.13075543598862,43.74159557767317]},"properties":{"ID":"CR176","Orient":312,"_layer":"GlobalKites - Crescents"}},{"type":"Feature","geometry":{"type":"Point","coordinates":[54.95604211078199,43.160360050764695]},"properties":{"ID":"CR177","Orient":331,"_layer":"GlobalKites - Crescents"}},{"type":"Feature","geometry":{"type":"Point","coordinates":[55.0381072027848,43.219875732324034]},"properties":{"ID":"CR178","Orient":316,"_layer":"GlobalKites - Crescents"}},{"type":"Feature","geometry":{"type":"Point","coordinates":[57.82106576999555,46.488632021390295]},"properties":{"ID":"CR179","Orient":1,"_layer":"GlobalKites - Crescents"}},{"type":"Feature","geometry":{"type":"Point","coordinates":[54.68710592058586,43.61735188481945]},"properties":{"ID":"CR180","Orient":280,"_layer":"GlobalKites - Crescents"}},{"type":"Feature","geometry":{"type":"Point","coordinates":[54.68975081145608,43.60829972192029]},"properties":{"ID":"CR181","Orient":272,"_layer":"GlobalKites - Crescents"}},{"type":"Feature","geometry":{"type":"Point","coordinates":[54.689455518670556,43.60441248417243]},"properties":{"ID":"CR182","Orient":292,"_layer":"GlobalKites - Crescents"}},{"type":"Feature","geometry":{"type":"Point","coordinates":[55.78602571231093,44.80553310098937]},"properties":{"ID":"CR183","Orient":321,"_layer":"GlobalKites - Crescents"}},{"type":"Feature","geometry":{"type":"Point","coordinates":[55.79742097890167,44.8157100931098]},"properties":{"ID":"CR184","Orient":290,"_layer":"GlobalKites - Crescents"}},{"type":"Feature","geometry":{"type":"Point","coordinates":[55.61571146482201,44.88975129442602]},"properties":{"ID":"CR185","Orient":298,"_layer":"GlobalKites - Crescents"}},{"type":"Feature","geometry":{"type":"Point","coordinates":[55.60862688715181,44.90409462171971]},"properties":{"ID":"CR186","Orient":194,"_layer":"GlobalKites - Crescents"}},{"type":"Feature","geometry":{"type":"Point","coordinates":[55.393425616249516,45.00988885979383]},"properties":{"ID":"CR187","Orient":317,"_layer":"GlobalKites - Crescents"}},{"type":"Feature","geometry":{"type":"Point","coordinates":[55.40424059718407,45.01703152839467]},"properties":{"ID":"CR188","Orient":288,"_layer":"GlobalKites - Crescents"}},{"type":"Feature","geometry":{"type":"Point","coordinates":[55.35658612034757,45.07793893491268]},"properties":{"ID":"CR189","Orient":298,"_layer":"GlobalKites - Crescents"}},{"type":"Feature","geometry":{"type":"Point","coordinates":[55.36993609885578,45.094063958741955]},"properties":{"ID":"CR190","Orient":310,"_layer":"GlobalKites - Crescents"}},{"type":"Feature","geometry":{"type":"Point","coordinates":[55.36470042522078,45.091103335215784]},"properties":{"ID":"CR191","Orient":310,"_layer":"GlobalKites - Crescents"}},{"type":"Feature","geometry":{"type":"Point","coordinates":[55.358686016371706,45.09363563489798]},"properties":{"ID":"CR192","Orient":33,"_layer":"GlobalKites - Crescents"}},{"type":"Feature","geometry":{"type":"Point","coordinates":[55.353856074729094,45.01474914955667]},"properties":{"ID":"CR193","Orient":321,"_layer":"GlobalKites - Crescents"}},{"type":"Feature","geometry":{"type":"Point","coordinates":[55.33731068012341,45.0633483971596]},"properties":{"ID":"CR194","Orient":300,"_layer":"GlobalKites - Crescents"}},{"type":"Feature","geometry":{"type":"Point","coordinates":[55.343819843265685,45.06990966588515]},"properties":{"ID":"CR195","Orient":306,"_layer":"GlobalKites - Crescents"}},{"type":"Feature","geometry":{"type":"Point","coordinates":[55.39211677106784,44.913509962235665]},"properties":{"ID":"CR196","Orient":11,"_layer":"GlobalKites - Crescents"}},{"type":"Feature","geometry":{"type":"Point","coordinates":[55.60761916817568,44.48137579195576]},"properties":{"ID":"CR197","Orient":37,"_layer":"GlobalKites - Crescents"}},{"type":"Feature","geometry":{"type":"Point","coordinates":[55.628916755957704,44.484871837818794]},"properties":{"ID":"CR198","Orient":303,"_layer":"GlobalKites - Crescents"}},{"type":"Feature","geometry":{"type":"Point","coordinates":[57.978310323278855,46.51466270312794]},"properties":{"ID":"CR199","Orient":999,"_layer":"GlobalKites - Crescents"}},{"type":"Feature","geometry":{"type":"Point","coordinates":[57.923426756152075,46.499030838832915]},"properties":{"ID":"CR200","Orient":331,"_layer":"GlobalKites - Crescents"}},{"type":"Feature","geometry":{"type":"Point","coordinates":[55.59358680310639,44.48902221482633]},"properties":{"ID":"CR201","Orient":29,"_layer":"GlobalKites - Crescents"}},{"type":"Feature","geometry":{"type":"Point","coordinates":[57.85074831395915,46.48529531013424]},"properties":{"ID":"CR202","Orient":13,"_layer":"GlobalKites - Crescents"}},{"type":"Feature","geometry":{"type":"Point","coordinates":[57.820142854119645,46.4887250619593]},"properties":{"ID":"CR203","Orient":18,"_layer":"GlobalKites - Crescents"}},{"type":"Feature","geometry":{"type":"Point","coordinates":[57.90154690908848,46.50256342040236]},"properties":{"ID":"CR204","Orient":347,"_layer":"GlobalKites - Crescents"}},{"type":"Feature","geometry":{"type":"Point","coordinates":[57.82726293751357,46.48825747589126]},"properties":{"ID":"CR205","Orient":336,"_layer":"GlobalKites - Crescents"}},{"type":"Feature","geometry":{"type":"Point","coordinates":[57.80704586883422,46.50356625471206]},"properties":{"ID":"CR206","Orient":50,"_layer":"GlobalKites - Crescents"}},{"type":"Feature","geometry":{"type":"Point","coordinates":[57.79732299264646,46.52139061526842]},"properties":{"ID":"CR207","Orient":314,"_layer":"GlobalKites - Crescents"}},{"type":"Feature","geometry":{"type":"Point","coordinates":[55.19610253239159,45.170824343759406]},"properties":{"ID":"CR208","Orient":341,"_layer":"GlobalKites - Crescents"}},{"type":"Feature","geometry":{"type":"Point","coordinates":[55.4970000005724,45.816065000311816]},"properties":{"ID":"CR209","Orient":335,"_layer":"GlobalKites - Crescents"}},{"type":"Feature","geometry":{"type":"Point","coordinates":[55.55299999973826,45.81778799998794]},"properties":{"ID":"CR210","Orient":2,"_layer":"GlobalKites - Crescents"}},{"type":"Feature","geometry":{"type":"Point","coordinates":[55.559000000240296,45.81665999982782]},"properties":{"ID":"CR211","Orient":9,"_layer":"GlobalKites - Crescents"}},{"type":"Feature","geometry":{"type":"Point","coordinates":[55.564999999560726,45.81669300029268]},"properties":{"ID":"CR212","Orient":318,"_layer":"GlobalKites - Crescents"}},{"type":"Feature","geometry":{"type":"Point","coordinates":[55.570999999723405,45.82334399956502]},"properties":{"ID":"CR213","Orient":302,"_layer":"GlobalKites - Crescents"}},{"type":"Feature","geometry":{"type":"Point","coordinates":[55.52699999999483,45.81627399960399]},"properties":{"ID":"CR214","Orient":329,"_layer":"GlobalKites - Crescents"}},{"type":"Feature","geometry":{"type":"Point","coordinates":[58.344490893270454,47.46751011142058]},"properties":{"ID":"CR215","Orient":348,"_layer":"GlobalKites - Crescents"}},{"type":"Feature","geometry":{"type":"Point","coordinates":[58.32611229451591,47.467793249694346]},"properties":{"ID":"CR216","Orient":334,"_layer":"GlobalKites - Crescents"}},{"type":"Feature","geometry":{"type":"Point","coordinates":[57.65183992026779,46.828312445420146]},"properties":{"ID":"CR217","Orient":352,"_layer":"GlobalKites - Crescents"}},{"type":"Feature","geometry":{"type":"Point","coordinates":[57.498140145571455,46.6797293344204]},"properties":{"ID":"CR218","Orient":6,"_layer":"GlobalKites - Crescents"}},{"type":"Feature","geometry":{"type":"Point","coordinates":[57.538046594376425,46.67338900923709]},"properties":{"ID":"CR219","Orient":305,"_layer":"GlobalKites - Crescents"}},{"type":"Feature","geometry":{"type":"Point","coordinates":[60.59343330488051,46.811946394097355]},"properties":{"ID":"CR220","Orient":106,"_layer":"GlobalKites - Crescents"}},{"type":"Feature","geometry":{"type":"Point","coordinates":[60.22137074957116,47.002667863451464]},"properties":{"ID":"CR221","Orient":330,"_layer":"GlobalKites - Crescents"}},{"type":"Feature","geometry":{"type":"Point","coordinates":[60.20090725143119,46.86457284017922]},"properties":{"ID":"CR222","Orient":339,"_layer":"GlobalKites - Crescents"}},{"type":"Feature","geometry":{"type":"Point","coordinates":[55.18590607810788,44.45455631064139]},"properties":{"ID":"CR223","Orient":20,"_layer":"GlobalKites - Crescents"}},{"type":"Feature","geometry":{"type":"Point","coordinates":[57.50820455482164,45.68826681322542]},"properties":{"ID":"CR224","Orient":263,"_layer":"GlobalKites - Crescents"}},{"type":"Feature","geometry":{"type":"Point","coordinates":[57.514101987586216,45.686288765364644]},"properties":{"ID":"CR225","Orient":289,"_layer":"GlobalKites - Crescents"}},{"type":"Feature","geometry":{"type":"Point","coordinates":[57.484400105617844,45.67890190472323]},"properties":{"ID":"CR226","Orient":167,"_layer":"GlobalKites - Crescents"}},{"type":"Feature","geometry":{"type":"Point","coordinates":[56.807967887478426,45.40648350498698]},"properties":{"ID":"CR227","Orient":32,"_layer":"GlobalKites - Crescents"}},{"type":"Feature","geometry":{"type":"Point","coordinates":[56.80374230814083,45.407763394683634]},"properties":{"ID":"CR228","Orient":29,"_layer":"GlobalKites - Crescents"}},{"type":"Feature","geometry":{"type":"Point","coordinates":[56.782742983842326,45.41463055745762]},"properties":{"ID":"CR229","Orient":67,"_layer":"GlobalKites - Crescents"}},{"type":"Feature","geometry":{"type":"Point","coordinates":[56.99058341398331,45.43262179636716]},"properties":{"ID":"CR230","Orient":304,"_layer":"GlobalKites - Crescents"}},{"type":"Feature","geometry":{"type":"Point","coordinates":[57.80617466630392,45.451358438287194]},"properties":{"ID":"CR231","Orient":270,"_layer":"GlobalKites - Crescents"}},{"type":"Feature","geometry":{"type":"Point","coordinates":[57.800239573416626,45.424761472271626]},"properties":{"ID":"CR232","Orient":347,"_layer":"GlobalKites - Crescents"}},{"type":"Feature","geometry":{"type":"Point","coordinates":[57.935643069779836,45.55541896310463]},"properties":{"ID":"CR233","Orient":337,"_layer":"GlobalKites - Crescents"}},{"type":"Feature","geometry":{"type":"Point","coordinates":[57.94834745749088,45.57503700326424]},"properties":{"ID":"CR234","Orient":211,"_layer":"GlobalKites - Crescents"}},{"type":"Feature","geometry":{"type":"Point","coordinates":[57.937714223013984,45.57874585967287]},"properties":{"ID":"CR235","Orient":198,"_layer":"GlobalKites - Crescents"}},{"type":"Feature","geometry":{"type":"Point","coordinates":[57.75578817547102,46.519235373706316]},"properties":{"ID":"CR236","Orient":299,"_layer":"GlobalKites - Crescents"}},{"type":"Feature","geometry":{"type":"Point","coordinates":[59.44697202692765,46.36753137825314]},"properties":{"ID":"CR237","Orient":61,"_layer":"GlobalKites - Crescents"}},{"type":"Feature","geometry":{"type":"Point","coordinates":[59.56749486444814,46.39885142779045]},"properties":{"ID":"CR238","Orient":44,"_layer":"GlobalKites - Crescents"}},{"type":"Feature","geometry":{"type":"Point","coordinates":[56.600999999948776,45.94242100008391]},"properties":{"ID":"CR239","Orient":214,"_layer":"GlobalKites - Crescents"}},{"type":"Feature","geometry":{"type":"Point","coordinates":[56.59299999987791,45.94783899971592]},"properties":{"ID":"CR240","Orient":214,"_layer":"GlobalKites - Crescents"}},{"type":"Feature","geometry":{"type":"Point","coordinates":[56.591999999719704,45.94556999986638]},"properties":{"ID":"CR241","Orient":196,"_layer":"GlobalKites - Crescents"}}]}