{"type":"FeatureCollection","name":"GlobalKites - Rings","features":[{"type":"Feature","geometry":{"type":"Point","coordinates":[58.06256621800006,45.83593903900005]},"properties":{"ID":"RI1","_layer":"GlobalKites - Rings"}},{"type":"Feature","geometry":{"type":"Point","coordinates":[58.20607279200006,46.441710175000054]},"properties":{"ID":"RI2","_layer":"GlobalKites - Rings"}},{"type":"Feature","geometry":{"type":"Point","coordinates":[58.24304731200005,46.524558025000054]},"properties":{"ID":"RI3","_layer":"GlobalKites - Rings"}},{"type":"Feature","geometry":{"type":"Point","coordinates":[58.25725605600005,47.16943668300005]},"properties":{"ID":"RI4","_layer":"GlobalKites - Rings"}},{"type":"Feature","geometry":{"type":"Point","coordinates":[58.24277456400006,46.94300542100005]},"properties":{"ID":"RI5","_layer":"GlobalKites - Rings"}},{"type":"Feature","geometry":{"type":"Point","coordinates":[58.13948190500005,46.92500060900005]},"properties":{"ID":"RI6","_layer":"GlobalKites - Rings"}},{"type":"Feature","geometry":{"type":"Point","coordinates":[57.502276914000056,45.67171256200005]},"properties":{"ID":"RI7","_layer":"GlobalKites - Rings"}},{"type":"Feature","geometry":{"type":"Point","coordinates":[58.01332282900005,45.81791711200005]},"properties":{"ID":"RI8","_layer":"GlobalKites - Rings"}},{"type":"Feature","geometry":{"type":"Point","coordinates":[57.564809845000056,45.738026745000056]},"properties":{"ID":"RI9","_layer":"GlobalKites - Rings"}},{"type":"Feature","geometry":{"type":"Point","coordinates":[57.36556511900005,45.716533393000056]},"properties":{"ID":"RI10","_layer":"GlobalKites - Rings"}},{"type":"Feature","geometry":{"type":"Point","coordinates":[57.103643016000056,45.73939135700005]},"properties":{"ID":"RI11","_layer":"GlobalKites - Rings"}},{"type":"Feature","geometry":{"type":"Point","coordinates":[56.99919346000006,45.690527526000054]},"properties":{"ID":"RI12","_layer":"GlobalKites - Rings"}},{"type":"Feature","geometry":{"type":"Point","coordinates":[56.63659694500006,45.80632057100005]},"properties":{"ID":"RI13","_layer":"GlobalKites - Rings"}},{"type":"Feature","geometry":{"type":"Point","coordinates":[57.831995064000054,45.54367500800005]},"properties":{"ID":"RI14","_layer":"GlobalKites - Rings"}},{"type":"Feature","geometry":{"type":"Point","coordinates":[57.84118395000005,45.60044709700005]},"properties":{"ID":"RI15","_layer":"GlobalKites - Rings"}},{"type":"Feature","geometry":{"type":"Point","coordinates":[57.810862224000054,45.61202708900005]},"properties":{"ID":"RI16","_layer":"GlobalKites - Rings"}},{"type":"Feature","geometry":{"type":"Point","coordinates":[57.933208824000054,45.59517700100005]},"properties":{"ID":"RI17","_layer":"GlobalKites - Rings"}},{"type":"Feature","geometry":{"type":"Point","coordinates":[57.96491290000005,45.60910711100005]},"properties":{"ID":"RI18","_layer":"GlobalKites - Rings"}},{"type":"Feature","geometry":{"type":"Point","coordinates":[57.96918971000005,45.612857860000055]},"properties":{"ID":"RI19","_layer":"GlobalKites - Rings"}},{"type":"Feature","geometry":{"type":"Point","coordinates":[58.099832250000055,45.577599131000056]},"properties":{"ID":"RI20","_layer":"GlobalKites - Rings"}},{"type":"Feature","geometry":{"type":"Point","coordinates":[58.245330788000054,45.589122399000054]},"properties":{"ID":"RI21","_layer":"GlobalKites - Rings"}},{"type":"Feature","geometry":{"type":"Point","coordinates":[58.20809476400005,45.59532837500005]},"properties":{"ID":"RI22","_layer":"GlobalKites - Rings"}},{"type":"Feature","geometry":{"type":"Point","coordinates":[58.105800685000055,45.79784346500006]},"properties":{"ID":"RI23","_layer":"GlobalKites - Rings"}},{"type":"Feature","geometry":{"type":"Point","coordinates":[58.14464793700005,45.75437490600005]},"properties":{"ID":"RI24","_layer":"GlobalKites - Rings"}},{"type":"Feature","geometry":{"type":"Point","coordinates":[58.169741040000055,45.73083612600006]},"properties":{"ID":"RI25","_layer":"GlobalKites - Rings"}},{"type":"Feature","geometry":{"type":"Point","coordinates":[58.18410960500005,45.739327509000056]},"properties":{"ID":"RI26","_layer":"GlobalKites - Rings"}},{"type":"Feature","geometry":{"type":"Point","coordinates":[58.04234430300006,45.98191424000005]},"properties":{"ID":"RI27","_layer":"GlobalKites - Rings"}},{"type":"Feature","geometry":{"type":"Point","coordinates":[57.938674504000055,45.964422883000054]},"properties":{"ID":"RI28","_layer":"GlobalKites - Rings"}},{"type":"Feature","geometry":{"type":"Point","coordinates":[57.98027542300005,45.54617972500005]},"properties":{"ID":"RI29","_layer":"GlobalKites - Rings"}},{"type":"Feature","geometry":{"type":"Point","coordinates":[57.829085428000056,46.482354908000055]},"properties":{"ID":"RI30","_layer":"GlobalKites - Rings"}},{"type":"Feature","geometry":{"type":"Point","coordinates":[57.826558668000054,46.478385216000056]},"properties":{"ID":"RI31","_layer":"GlobalKites - Rings"}},{"type":"Feature","geometry":{"type":"Point","coordinates":[58.08110440400006,46.56039732400005]},"properties":{"ID":"RI32","_layer":"GlobalKites - Rings"}},{"type":"Feature","geometry":{"type":"Point","coordinates":[57.96512101900005,46.53028346600005]},"properties":{"ID":"RI33","_layer":"GlobalKites - Rings"}},{"type":"Feature","geometry":{"type":"Point","coordinates":[57.95498103300005,46.52570135300005]},"properties":{"ID":"RI34","_layer":"GlobalKites - Rings"}},{"type":"Feature","geometry":{"type":"Point","coordinates":[57.947120608000056,46.526267276000056]},"properties":{"ID":"RI35","_layer":"GlobalKites - Rings"}},{"type":"Feature","geometry":{"type":"Point","coordinates":[57.943972525000056,46.529490501000055]},"properties":{"ID":"RI36","_layer":"GlobalKites - Rings"}},{"type":"Feature","geometry":{"type":"Point","coordinates":[57.94642234100005,46.522839506000054]},"properties":{"ID":"RI37","_layer":"GlobalKites - Rings"}},{"type":"Feature","geometry":{"type":"Point","coordinates":[57.91207340300006,46.51901099100005]},"properties":{"ID":"RI38","_layer":"GlobalKites - Rings"}},{"type":"Feature","geometry":{"type":"Point","coordinates":[57.90541708900005,46.53140502200005]},"properties":{"ID":"RI39","_layer":"GlobalKites - Rings"}},{"type":"Feature","geometry":{"type":"Point","coordinates":[57.91952619100005,46.52369392600005]},"properties":{"ID":"RI40","_layer":"GlobalKites - Rings"}},{"type":"Feature","geometry":{"type":"Point","coordinates":[57.93173566400005,46.52642997800005]},"properties":{"ID":"RI41","_layer":"GlobalKites - Rings"}},{"type":"Feature","geometry":{"type":"Point","coordinates":[57.932654058000054,46.53154481200006]},"properties":{"ID":"RI42","_layer":"GlobalKites - Rings"}},{"type":"Feature","geometry":{"type":"Point","coordinates":[57.93924840300006,46.537297931000055]},"properties":{"ID":"RI43","_layer":"GlobalKites - Rings"}},{"type":"Feature","geometry":{"type":"Point","coordinates":[57.75906822500006,46.59929176400005]},"properties":{"ID":"RI44","_layer":"GlobalKites - Rings"}},{"type":"Feature","geometry":{"type":"Point","coordinates":[58.25669921800005,47.17546868800005]},"properties":{"ID":"RI45","_layer":"GlobalKites - Rings"}},{"type":"Feature","geometry":{"type":"Point","coordinates":[57.65564952700005,46.45374301300005]},"properties":{"ID":"RI46","_layer":"GlobalKites - Rings"}},{"type":"Feature","geometry":{"type":"Point","coordinates":[58.40655450700005,47.42566106800005]},"properties":{"ID":"RI47","_layer":"GlobalKites - Rings"}},{"type":"Feature","geometry":{"type":"Point","coordinates":[58.37718394400005,47.41037862200005]},"properties":{"ID":"RI48","_layer":"GlobalKites - Rings"}},{"type":"Feature","geometry":{"type":"Point","coordinates":[58.49174353000006,47.36498771600005]},"properties":{"ID":"RI49","_layer":"GlobalKites - Rings"}},{"type":"Feature","geometry":{"type":"Point","coordinates":[58.58429818300006,47.404004590000056]},"properties":{"ID":"RI50","_layer":"GlobalKites - Rings"}},{"type":"Feature","geometry":{"type":"Point","coordinates":[58.52537111400005,47.23947436400005]},"properties":{"ID":"RI51","_layer":"GlobalKites - Rings"}},{"type":"Feature","geometry":{"type":"Point","coordinates":[58.033426602000056,46.86654235300006]},"properties":{"ID":"RI52","_layer":"GlobalKites - Rings"}},{"type":"Feature","geometry":{"type":"Point","coordinates":[57.882866983000056,46.53454064900005]},"properties":{"ID":"RI53","_layer":"GlobalKites - Rings"}},{"type":"Feature","geometry":{"type":"Point","coordinates":[57.94727518900005,46.54803767700005]},"properties":{"ID":"RI54","_layer":"GlobalKites - Rings"}},{"type":"Feature","geometry":{"type":"Point","coordinates":[57.871758379000056,46.525707288000056]},"properties":{"ID":"RI55","_layer":"GlobalKites - Rings"}},{"type":"Feature","geometry":{"type":"Point","coordinates":[56.30522513436396,46.42724480780608]},"properties":{"ID":"RI56","_layer":"GlobalKites - Rings"}},{"type":"Feature","geometry":{"type":"Point","coordinates":[56.25619885100006,45.76121591700005]},"properties":{"ID":"RI57","_layer":"GlobalKites - Rings"}},{"type":"Feature","geometry":{"type":"Point","coordinates":[55.93800675800006,45.72882764700005]},"properties":{"ID":"RI58","_layer":"GlobalKites - Rings"}},{"type":"Feature","geometry":{"type":"Point","coordinates":[55.986605319000056,45.80061323600005]},"properties":{"ID":"RI59","_layer":"GlobalKites - Rings"}},{"type":"Feature","geometry":{"type":"Point","coordinates":[56.610874927000054,45.93392415200005]},"properties":{"ID":"RI60","_layer":"GlobalKites - Rings"}},{"type":"Feature","geometry":{"type":"Point","coordinates":[57.964,45.61193999999999]},"properties":{"ID":"RI61","_layer":"GlobalKites - Rings"}},{"type":"Feature","geometry":{"type":"Point","coordinates":[56.515,46.080078000000015]},"properties":{"ID":"RI62","_layer":"GlobalKites - Rings"}}]}