{"type":"FeatureCollection","name":"GlobalKites - V-Shaped","features":[{"type":"Feature","geometry":{"type":"Point","coordinates":[34.46933700000005,30.589184000000053]},"properties":{"ID":"V_EG1","_layer":"GlobalKites - V-Shaped"}},{"type":"Feature","geometry":{"type":"Point","coordinates":[34.37832500000005,30.60802100000005]},"properties":{"ID":"V_EG2","_layer":"GlobalKites - V-Shaped"}},{"type":"Feature","geometry":{"type":"Point","coordinates":[34.53604000000005,30.29613000000005]},"properties":{"ID":"V_EG3","_layer":"GlobalKites - V-Shaped"}},{"type":"Feature","geometry":{"type":"Point","coordinates":[34.775327000000054,29.69619300000005]},"properties":{"ID":"V_EG4","_layer":"GlobalKites - V-Shaped"}},{"type":"Feature","geometry":{"type":"Point","coordinates":[34.20293499200005,28.94684212700005]},"properties":{"ID":"V_EG5","_layer":"GlobalKites - V-Shaped"}},{"type":"Feature","geometry":{"type":"Point","coordinates":[34.544526000000054,30.74570900000005]},"properties":{"ID":"V_IL1","_layer":"GlobalKites - V-Shaped"}},{"type":"Feature","geometry":{"type":"Point","coordinates":[34.53542900000005,30.69646900000005]},"properties":{"ID":"V_IL2","_layer":"GlobalKites - V-Shaped"}},{"type":"Feature","geometry":{"type":"Point","coordinates":[34.820491000000054,29.859748000000053]},"properties":{"ID":"V_IL3","_layer":"GlobalKites - V-Shaped"}},{"type":"Feature","geometry":{"type":"Point","coordinates":[34.91282100000005,29.59834400000005]},"properties":{"ID":"V_IL4","_layer":"GlobalKites - V-Shaped"}},{"type":"Feature","geometry":{"type":"Point","coordinates":[34.917204000000055,29.54733800000005]},"properties":{"ID":"V_IL5","_layer":"GlobalKites - V-Shaped"}},{"type":"Feature","geometry":{"type":"Point","coordinates":[34.900628000000054,29.867873000000053]},"properties":{"ID":"V_IL6","_layer":"GlobalKites - V-Shaped"}},{"type":"Feature","geometry":{"type":"Point","coordinates":[34.93469700000005,29.860553000000053]},"properties":{"ID":"V_IL7","_layer":"GlobalKites - V-Shaped"}},{"type":"Feature","geometry":{"type":"Point","coordinates":[34.96189700000005,29.85704300000005]},"properties":{"ID":"V_IL8","_layer":"GlobalKites - V-Shaped"}},{"type":"Feature","geometry":{"type":"Point","coordinates":[35.02149800000005,29.872625000000053]},"properties":{"ID":"V_IL9","_layer":"GlobalKites - V-Shaped"}},{"type":"Feature","geometry":{"type":"Point","coordinates":[34.88922500000005,30.20005700000005]},"properties":{"ID":"V_IL10","_layer":"GlobalKites - V-Shaped"}},{"type":"Feature","geometry":{"type":"Point","coordinates":[34.801016000000054,30.54301300000005]},"properties":{"ID":"V_IL11","_layer":"GlobalKites - V-Shaped"}},{"type":"Feature","geometry":{"type":"Point","coordinates":[34.93771600000005,30.601028000000053]},"properties":{"ID":"V_IL12","_layer":"GlobalKites - V-Shaped"}},{"type":"Feature","geometry":{"type":"Point","coordinates":[35.37431800000005,31.464764000000052]},"properties":{"ID":"V_IL13","_layer":"GlobalKites - V-Shaped"}},{"type":"Feature","geometry":{"type":"Point","coordinates":[34.53379875400005,30.64912599100005]},"properties":{"ID":"V_IL15","_layer":"GlobalKites - V-Shaped"}},{"type":"Feature","geometry":{"type":"Point","coordinates":[34.53363001900005,30.65659425600005]},"properties":{"ID":"V_IL14","_layer":"GlobalKites - V-Shaped"}},{"type":"Feature","geometry":{"type":"Point","coordinates":[34.81022878300005,30.570242593000053]},"properties":{"ID":"V_IL16","_layer":"GlobalKites - V-Shaped"}},{"type":"Feature","geometry":{"type":"Point","coordinates":[34.838135904000055,29.817747664000052]},"properties":{"ID":"V_IL17","_layer":"GlobalKites - V-Shaped"}},{"type":"Feature","geometry":{"type":"Point","coordinates":[35.01396890200005,29.83053522000005]},"properties":{"ID":"V_IL18","_layer":"GlobalKites - V-Shaped"}},{"type":"Feature","geometry":{"type":"Point","coordinates":[35.01680174700005,29.830544558000053]},"properties":{"ID":"V_IL19","_layer":"GlobalKites - V-Shaped"}},{"type":"Feature","geometry":{"type":"Point","coordinates":[35.02763798000005,29.83093358100005]},"properties":{"ID":"V_IL20","_layer":"GlobalKites - V-Shaped"}},{"type":"Feature","geometry":{"type":"Point","coordinates":[35.10558616000005,29.82222656400005]},"properties":{"ID":"V_JD1","_layer":"GlobalKites - V-Shaped"}},{"type":"Feature","geometry":{"type":"Point","coordinates":[35.972167893000055,29.378817570000052]},"properties":{"ID":"V_JD2","_layer":"GlobalKites - V-Shaped"}},{"type":"Feature","geometry":{"type":"Point","coordinates":[36.40634493700005,28.01151485900005]},"properties":{"ID":"V_AB1","_layer":"GlobalKites - V-Shaped"}},{"type":"Feature","geometry":{"type":"Point","coordinates":[36.932837586000055,27.54438914900005]},"properties":{"ID":"V_AB2","_layer":"GlobalKites - V-Shaped"}},{"type":"Feature","geometry":{"type":"Point","coordinates":[36.405938066000054,28.17999748300005]},"properties":{"ID":"V_AB3","_layer":"GlobalKites - V-Shaped"}},{"type":"Feature","geometry":{"type":"Point","coordinates":[36.396125778000055,28.00181225800005]},"properties":{"ID":"V_AB4","_layer":"GlobalKites - V-Shaped"}},{"type":"Feature","geometry":{"type":"Point","coordinates":[37.16023425400005,27.43312937800005]},"properties":{"ID":"V_AB5","_layer":"GlobalKites - V-Shaped"}},{"type":"Feature","geometry":{"type":"Point","coordinates":[38.17104745600005,27.21835398700005]},"properties":{"ID":"V_AB6","_layer":"GlobalKites - V-Shaped"}},{"type":"Feature","geometry":{"type":"Point","coordinates":[36.22564700000005,28.01752200000005]},"properties":{"ID":"V_AB7","_layer":"GlobalKites - V-Shaped"}},{"type":"Feature","geometry":{"type":"Point","coordinates":[36.224499034000054,28.02083392800005]},"properties":{"ID":"V_AB8","_layer":"GlobalKites - V-Shaped"}},{"type":"Feature","geometry":{"type":"Point","coordinates":[36.266439713000054,28.149500163000052]},"properties":{"ID":"V_AB9","_layer":"GlobalKites - V-Shaped"}},{"type":"Feature","geometry":{"type":"Point","coordinates":[36.23540504100005,28.07653916500005]},"properties":{"ID":"V_AB10","_layer":"GlobalKites - V-Shaped"}},{"type":"Feature","geometry":{"type":"Point","coordinates":[37.32730962800005,27.30609230900005]},"properties":{"ID":"V_AB11","_layer":"GlobalKites - V-Shaped"}},{"type":"Feature","geometry":{"type":"Point","coordinates":[36.417323442000054,27.98790546500005]},"properties":{"ID":"V_AB12","_layer":"GlobalKites - V-Shaped"}},{"type":"Feature","geometry":{"type":"Point","coordinates":[36.40657667200005,28.01088297000005]},"properties":{"ID":"V_AB13","_layer":"GlobalKites - V-Shaped"}},{"type":"Feature","geometry":{"type":"Point","coordinates":[37.55911457600005,27.11730680100005]},"properties":{"ID":"V_AB14","_layer":"GlobalKites - V-Shaped"}},{"type":"Feature","geometry":{"type":"Point","coordinates":[36.267315311000054,28.25334960600005]},"properties":{"ID":"V_AB15","_layer":"GlobalKites - V-Shaped"}},{"type":"Feature","geometry":{"type":"Point","coordinates":[36.26862005400005,28.25301848200005]},"properties":{"ID":"V_AB16","_layer":"GlobalKites - V-Shaped"}},{"type":"Feature","geometry":{"type":"Point","coordinates":[36.41099159800005,28.249963492000052]},"properties":{"ID":"V_AB17","_layer":"GlobalKites - V-Shaped"}},{"type":"Feature","geometry":{"type":"Point","coordinates":[36.27004625800005,28.02677643200005]},"properties":{"ID":"V_AB18","_layer":"GlobalKites - V-Shaped"}},{"type":"Feature","geometry":{"type":"Point","coordinates":[36.27336026700005,28.02206821400005]},"properties":{"ID":"V_AB19","_layer":"GlobalKites - V-Shaped"}},{"type":"Feature","geometry":{"type":"Point","coordinates":[35.71754388400005,28.234118310000053]},"properties":{"ID":"V_AB20","_layer":"GlobalKites - V-Shaped"}},{"type":"Feature","geometry":{"type":"Point","coordinates":[36.26109975700005,28.118124825000052]},"properties":{"ID":"V_AB21","_layer":"GlobalKites - V-Shaped"}},{"type":"Feature","geometry":{"type":"Point","coordinates":[36.31072165900005,28.115709857000052]},"properties":{"ID":"V_AB22","_layer":"GlobalKites - V-Shaped"}},{"type":"Feature","geometry":{"type":"Point","coordinates":[36.39357178200005,27.99441903300005]},"properties":{"ID":"V_AB23","_layer":"GlobalKites - V-Shaped"}},{"type":"Feature","geometry":{"type":"Point","coordinates":[36.599578050000055,27.967133412000052]},"properties":{"ID":"V_AB24","_layer":"GlobalKites - V-Shaped"}},{"type":"Feature","geometry":{"type":"Point","coordinates":[36.55728420700005,27.95539878600005]},"properties":{"ID":"V_AB25","_layer":"GlobalKites - V-Shaped"}},{"type":"Feature","geometry":{"type":"Point","coordinates":[36.626658838000054,27.88215951400005]},"properties":{"ID":"V_AB26","_layer":"GlobalKites - V-Shaped"}},{"type":"Feature","geometry":{"type":"Point","coordinates":[36.23880474300005,27.855135329000053]},"properties":{"ID":"V_AB27","_layer":"GlobalKites - V-Shaped"}},{"type":"Feature","geometry":{"type":"Point","coordinates":[36.31678438800005,27.79443143700005]},"properties":{"ID":"V_AB28","_layer":"GlobalKites - V-Shaped"}},{"type":"Feature","geometry":{"type":"Point","coordinates":[35.494123069000054,28.45030596300005]},"properties":{"ID":"V_AB29","_layer":"GlobalKites - V-Shaped"}},{"type":"Feature","geometry":{"type":"Point","coordinates":[36.40972861700005,28.14470240500005]},"properties":{"ID":"V_AB30","_layer":"GlobalKites - V-Shaped"}},{"type":"Feature","geometry":{"type":"Point","coordinates":[36.40530226600005,28.015493167000052]},"properties":{"ID":"V_AB31","_layer":"GlobalKites - V-Shaped"}},{"type":"Feature","geometry":{"type":"Point","coordinates":[36.40726509200005,28.01462465000005]},"properties":{"ID":"V_AB32","_layer":"GlobalKites - V-Shaped"}},{"type":"Feature","geometry":{"type":"Point","coordinates":[36.46843209000005,27.859489155000052]},"properties":{"ID":"V_AB33","_layer":"GlobalKites - V-Shaped"}},{"type":"Feature","geometry":{"type":"Point","coordinates":[35.70408408000005,28.25466175300005]},"properties":{"ID":"V_AB34","_layer":"GlobalKites - V-Shaped"}},{"type":"Feature","geometry":{"type":"Point","coordinates":[35.708627787000054,28.24881439700005]},"properties":{"ID":"V_AB35","_layer":"GlobalKites - V-Shaped"}},{"type":"Feature","geometry":{"type":"Point","coordinates":[35.91883789400005,28.03283688700005]},"properties":{"ID":"V_AB36","_layer":"GlobalKites - V-Shaped"}},{"type":"Feature","geometry":{"type":"Point","coordinates":[35.904054968000054,28.01734295400005]},"properties":{"ID":"V_AB37","_layer":"GlobalKites - V-Shaped"}}]}